WellId,WellName,Lease,API,SurfaceLatitude,SurfaceLongitude,BottomHoleLatitude,BottomHoleLongitude,Country,County,State,CurrentOperator,OriginalOperator,WellStatus,WellType,Field,ProducingFormation,WellboreProfile,Grid1,Grid2,Grid3,Grid4,Grid5,TotalDepth,TrueVerticalDepth,LateralLength,DFElevation,GLElevation,KBElevation,DateModified,FirstProdDate,LastProdDate,LogDate,PermitDate,PlugDate,SpudDate,TestDate,CumulativeGasProduction,CumulativeOilProduction,CumulativeWaterProduction,LastMonthOil,LastMonthGas,LastMonthWater,LastMonthBOE,HasCore,HasFile,HasLog,HasPerf,HasProduction,HasSample,HasTop
5eae641d-4f6a-41ba-b5c7-78af15b3029e,LANSING 8-25H1,LANSING,33053070620000,47.9618644714355,-103.293395996094,47.9354553222656,-103.291694641113,,MC KENZIE,North Dakota,"CONTINENTAL RESOURCES, INC.","CONTINENTAL RESOURCES, INC.",,,BANKS,Bakken,,,152N,99W,25,,20716,11231.150390625,9484.849609375,0,2154,2185,11/18/2017 8:18:52 AM,1/1/2018 12:00:00 AM,1/1/2018 12:00:00 AM,,7/2/2015 12:00:00 AM,,10/14/2015 12:00:00 AM,,2660,1584,3424,1584,2660,3424,2027.333,True,True,True,False,True,False,False
1ef1ccfc-5c9b-43e9-b2fc-cd1bddc2549a,LANSING 6-25H,LANSING,33053070610000,47.9618759155273,-103.293678283691,47.9354591369629,-103.292839050293,,MC KENZIE,North Dakota,"CONTINENTAL RESOURCES, INC.","CONTINENTAL RESOURCES, INC.",,,BANKS,Bakken,,,152N,99W,25,,20598,11135,9463,0,2154,2185,11/18/2017 8:20:07 AM,1/1/2018 12:00:00 AM,1/1/2018 12:00:00 AM,,7/2/2015 12:00:00 AM,,10/11/2015 12:00:00 AM,,5006,2373,5788,2373,5006,5788,3207.333,True,True,False,False,True,False,False
9f962611-e3cf-4be0-b506-02a1213275fc,HE 5,HE,05083066010100,37.5040283203125,-108.89852142334,37.5040283203125,-108.89852142334,,MONTEZUMA,Colorado,KINDER MORGAN CO2 CO LP,,PR,,MCELMO,"LDVLL ",,,38N19W,N,36,,10500,,,0,6490,0,3/27/2018 4:01:44 PM,1/1/2018 12:00:00 AM,1/1/2018 12:00:00 AM,,,,9/10/2002 12:00:00 AM,,821059,0,0,0,821059,0,136843.2,False,False,False,True,True,False,False
982bd314-9d10-42f9-854e-ea0eede7f8cd,MCELMO DOME UNIT 31-37-17 MC-5,MCELMO DOME UNIT 31-37-17,05083064380100,37.4167404174805,-108.767181396484,37.4167404174805,-108.767181396484,,MONTEZUMA,Colorado,KINDER MORGAN CO2 CO LP,,PR,,MCELMO,"LDVLL ",,,37N17W,N,31,,9230,,,0,6759,0,3/27/2018 6:31:47 PM,1/1/2018 12:00:00 AM,1/1/2018 12:00:00 AM,,,,9/22/2010 12:00:00 AM,,27795,0,0,0,27795,0,4632.5,False,False,False,True,True,False,False
bcb3a84d-37fa-4d1b-8181-fa2a43b75eb8,MCELMO DOME UNIT 35-38-19 HE-1,MCELMO DOME UNIT 35-38-19,05083063800100,37.5053024291992,-108.909118652344,37.5053024291992,-108.909118652344,,MONTEZUMA,Colorado,KINDER MORGAN CO2 CO LP,,PR,,MCELMO,"LDVLL ",,,38N19W,N,35,,9343,,,0,6438,0,3/24/2018 7:26:51 PM,1/1/2018 12:00:00 AM,1/1/2018 12:00:00 AM,,,,8/23/2010 12:00:00 AM,,479300,0,0,0,479300,0,79883.34,False,False,False,True,True,False,False
75a2caca-acea-4ea2-b60d-aa0979264ba1,2-5 Skyfall,Skyfall,05073067190000,39.2988052368164,-103.573501586914,39.2988052368164,-103.573501586914,,LINCOLN,Colorado,MURFIN DRILLING COMPANY INC,,PR,,WILDCAT,FRSC,,,9S,55W,5,,8700,,,0,5665,0,3/16/2018 1:23:01 AM,1/1/2018 12:00:00 AM,1/1/2018 12:00:00 AM,,4/28/2017 12:00:00 AM,,9/16/2017 12:00:00 AM,,1749,3608,106,3608,1749,106,3899.5,False,True,False,False,True,False,False
c78fa858-3165-4921-bb4d-eabb14ca9f79,SB001 ST00BP01,G26315,608114068201,27.4657917022705,-90.565803527832,27.4657917022705,-90.565803527832,,GREEN CANYON,,Amerada Hess Corporation,,Borehole Completed,OIL AND GAS,GC468,,,,,,,,,,,0,0,83,3/17/2018 1:15:36 PM,1/25/2018 12:00:00 AM,,,,,5/6/2017 12:00:00 AM,,,,,,,,,False,False,False,False,True,False,False
80670f49-05f3-422c-81cc-5ab69f799d83,144 IGS,IGS,05067095330000,37.0934524536133,-107.735321044922,37.0913734436035,-107.740325927734,,LA PLATA,Colorado,CATAMOUNT ENERGY PARTNERS LLC,,PR,OIL AND GAS,IGNACIO BLANCO,"FRLDC ",DIRECTIONAL,,33N,8W,20,,3941,3424,480,0,6752,0,4/3/2018 7:09:04 PM,1/1/2018 12:00:00 AM,1/1/2018 12:00:00 AM,,,,11/4/2017 12:00:00 AM,,6144,0,1227,0,6144,1227,1024,False,True,False,False,True,False,False
b709449c-230a-4282-8973-1e4bf0759f5e,6-17D-46 BTR,,4301351078,40.1356086730957,-110.58869934082,40.1348991394043,-110.588958740234,,DUCHESNE,Utah,CRESCENT POINT ENERGY U.S. CORP,,PRODUCING,OIL,ALTAMONT,WASATCH,DIRECTIONAL,,4.0S,6.0W,17,,0,,268.016021728516,0,0,0,10/20/2017 5:26:25 PM,1/1/2018 12:00:00 AM,1/1/2018 12:00:00 AM,,,,,,0,6544,2021,6544,0,2021,6544,False,False,False,False,True,False,False
17b8fc03-9ccb-4d2f-b392-aadb9fc94ab2,Bagley 4-19C4,,4301352843,40.204288482666,-110.372886657715,40.2042808532715,-110.375053405762,,DUCHESNE,Utah,"EP ENERGY E&P COMPANY, L.P.",,PRODUCING,OIL,ALTAMONT,WASATCH,DIRECTIONAL,,3.0S,4.0W,19,,0,,603.296142578125,0,0,0,10/20/2017 5:27:57 PM,1/1/2018 12:00:00 AM,1/1/2018 12:00:00 AM,,,,,,4858,4788,2942,4788,4858,2942,5597.667,False,False,False,False,True,False,False
55c1b1e8-ba5b-4090-a84c-abc59f76d33c,NORTH HOBBS G/SA UNIT #653,NORTH HOBBS G/SA UNIT,3002543846,32.739803314209,-103.203506469727,32.739803314209,-103.203506469727,,LEA,New Mexico,OCCIDENTAL PERMIAN LIMITED PARTNERSHIP,,New,OIL,,GRAYBURG-SAN ANDRES,DIRECTIONAL,,18S,37E,24,,6100,6003,,0,3675,0,11/17/2017 9:56:09 PM,1/1/2018 12:00:00 AM,1/1/2018 12:00:00 AM,,6/6/2017 12:00:00 AM,,11/17/2017 12:00:00 AM,,0,0,52112,0,0,52112,0,False,False,False,True,True,False,False
52a1009b-73e7-4c33-896b-6f048ce53f8f,SR 432-12 YOUBERG,YOUBERG,05045232950000,39.4552612304688,-107.833885192871,39.4535217285156,-107.833229064941,,GARFIELD,Colorado,TEP ROCKY MOUNTAIN LLC,,PR,,RULISON,WFCM,DIRECTIONAL,,7S,94W,12,,9338,9294,660.498352050781,0,7254,0,4/3/2018 7:06:00 PM,1/1/2018 12:00:00 AM,1/1/2018 12:00:00 AM,,9/9/2016 12:00:00 AM,,9/13/2017 12:00:00 AM,,32467,125,1661,125,32467,1661,5536.167,False,True,False,False,True,False,False
c2020424-90fe-4e36-a107-c1f7be28ac28,23B-18-07-95 BMC B,BMC B,05045233200000,39.4388008117676,-108.046478271484,39.4360771179199,-108.042144775391,,GARFIELD,Colorado,URSA OPERATING COMPANY LLC,,PR,,GRAND VALLEY,WFCM,DIRECTIONAL,,7S,95W,18,,6415,6032,452,0,5098,0,4/3/2018 7:06:00 PM,1/1/2018 12:00:00 AM,1/1/2018 12:00:00 AM,,9/10/2016 12:00:00 AM,,6/29/2017 12:00:00 AM,,7527,0,0,0,7527,0,1254.5,False,True,False,False,True,False,False
c96c2239-e0fa-4e4f-bd51-fe72a16f105b,13A-18-07-95 BMC B,BMC B,05045233270000,39.4388046264648,-108.046340942383,39.4373817443848,-108.046752929688,,GARFIELD,Colorado,URSA OPERATING COMPANY LLC,,PR,,WILDCAT,WFCM,DIRECTIONAL,,7S,95W,18,,6060,6015,533.395629882813,0,5098,0,4/3/2018 7:06:02 PM,1/1/2018 12:00:00 AM,1/1/2018 12:00:00 AM,,9/10/2016 12:00:00 AM,,6/26/2017 12:00:00 AM,,62319,0,0,0,62319,0,10386.5,False,True,False,False,True,False,False
0e7c3943-1b4c-400b-8983-07004156ab6c,SR 332-12 Youberg,YOUBERG,05045234290000,39.4552536010742,-107.833839416504,39.4544486999512,-107.833503723145,,GARFIELD,Colorado,TEP ROCKY MOUNTAIN LLC,,PR,,RULISON,WFCM,DIRECTIONAL,,7S,94W,12,,9283,9273,308.273010253906,0,7254,0,4/3/2018 7:06:06 PM,1/1/2018 12:00:00 AM,1/1/2018 12:00:00 AM,,11/29/2016 12:00:00 AM,,8/2/2017 12:00:00 AM,,40136,155,2054,155,40136,2054,6844.333,False,True,False,False,True,False,False
60a4dd23-f10f-4a84-9d35-15da78c65042,SR 323-12 WARE,Ware,05045234520000,39.4511909484863,-107.836715698242,39.4522552490234,-107.838592529297,,GARFIELD,Colorado,TEP ROCKY MOUNTAIN LLC,,PR,,RULISON,WFCM,DIRECTIONAL,,7S,94W,12,,9512,9469,656.404479980469,0,7479,0,4/3/2018 7:06:03 PM,1/1/2018 12:00:00 AM,1/1/2018 12:00:00 AM,,2/28/2017 12:00:00 AM,,10/20/2017 12:00:00 AM,,11490,16,588,16,11490,588,1931,False,True,False,False,True,False,False
b67fbad7-43b8-416f-92a0-b6de1c7ece96,SR 412-12 WARE,Ware,05045234490000,39.4511756896973,-107.836708068848,39.4543304443359,-107.84358215332,,GARFIELD,Colorado,TEP ROCKY MOUNTAIN LLC,,PR,,RULISON,WFCM,DIRECTIONAL,,7S,94W,12,,9997,9499,500,0,7479,0,4/3/2018 7:06:03 PM,1/1/2018 12:00:00 AM,1/1/2018 12:00:00 AM,,2/28/2017 12:00:00 AM,,10/28/2017 12:00:00 AM,,11498,16,588,16,11498,588,1932.333,False,False,False,False,True,False,False
82985971-8ecd-414d-9662-c97f4f62cf8f,SR 313-12 WARE,Ware,05045234480000,39.4511222839355,-107.83667755127,39.4518280029297,-107.84351348877,,GARFIELD,Colorado,TEP ROCKY MOUNTAIN LLC,,PR,,RULISON,WFCM,DIRECTIONAL,,7S,94W,12,,9883,9531,369,0,7479,0,4/3/2018 7:06:02 PM,1/1/2018 12:00:00 AM,1/1/2018 12:00:00 AM,,2/28/2017 12:00:00 AM,,,,18771,26,960,26,18771,960,3154.5,False,True,False,False,True,False,False
c1bab69d-0505-4b81-800b-71fbdf31d32a,43B-13-07-96 BMC B,BMC B,05045234810000,39.4388008117676,-108.046546936035,39.4360275268555,-108.051246643066,,GARFIELD,Colorado,URSA OPERATING COMPANY LLC,,PR,,GRAND VALLEY,WFCM,DIRECTIONAL,,7S,95W,18,,6433,5986,445,0,5098,0,4/3/2018 7:06:05 PM,1/1/2018 12:00:00 AM,1/1/2018 12:00:00 AM,,3/3/2017 12:00:00 AM,,5/26/2017 12:00:00 AM,,3440,0,0,0,3440,0,573.3333,False,True,False,False,True,False,False
df70f7e1-7f42-4845-9e55-0b4b42d3b5b4,PA 511-25 TRI STATE TRUCKING,TRI STATE TRUCKING,05045236430000,39.4969177246094,-107.949699401855,39.4999504089355,-107.952247619629,,GARFIELD,Colorado,TEP ROCKY MOUNTAIN LLC,TEP ROCKY MOUNTAIN LLC,PR,,PARACHUTE,WFCM,DIRECTIONAL,,6S,95W,25,,8085,7925,157,0,5224,0,4/3/2018 7:06:09 PM,1/1/2018 12:00:00 AM,1/1/2018 12:00:00 AM,,8/25/2017 12:00:00 AM,,,,4749,17,0,17,4749,0,808.5,False,False,False,False,True,False,False
96f3aabf-7c55-400c-bd87-40587ab5f330,PA 341-26 TRI STATE TRUCKING,TRI STATE TRUCKING,05045236500000,39.4968872070313,-107.949699401855,39.5019187927246,-107.95694732666,,GARFIELD,Colorado,TEP ROCKY MOUNTAIN LLC,TEP ROCKY MOUNTAIN LLC,PR,,PARACHUTE,WFCM,DIRECTIONAL,,6S,95W,25,,8722,7966,739,0,5224,0,4/3/2018 7:06:07 PM,1/1/2018 12:00:00 AM,1/1/2018 12:00:00 AM,,8/25/2017 12:00:00 AM,,,,5820,21,0,21,5820,0,991,False,False,False,False,True,False,False
6902743f-5d37-4d33-89d7-73afc226573e,PA 411-25 TRI STATE TRUCKING,TRI STATE TRUCKING,05045236590000,39.4968795776367,-107.949676513672,39.5009231567383,-107.952262878418,,GARFIELD,Colorado,TEP ROCKY MOUNTAIN LLC,TEP ROCKY MOUNTAIN LLC,PR,,PARACHUTE,WFCM,DIRECTIONAL,,6S,95W,25,,8245,7954,293,0,5224,0,4/3/2018 7:06:07 PM,1/1/2018 12:00:00 AM,1/1/2018 12:00:00 AM,,8/25/2017 12:00:00 AM,,,,4314,15,0,15,4314,0,734,False,False,False,False,True,False,False
5074ed6f-48eb-4f02-bde1-ace819cc5784,PA 541-26 TRI STATE TRUCKING,TRI STATE TRUCKING,05045236510000,39.4968872070313,-107.949729919434,39.5000839233398,-107.956924438477,,GARFIELD,Colorado,TEP ROCKY MOUNTAIN LLC,TEP ROCKY MOUNTAIN LLC,PR,,PARACHUTE,WFCM,DIRECTIONAL,,6S,95W,25,,8587,8034,636,0,5224,0,4/3/2018 7:06:07 PM,1/1/2018 12:00:00 AM,1/1/2018 12:00:00 AM,,8/25/2017 12:00:00 AM,,,,6284,22,0,22,6284,0,1069.333,False,False,False,False,True,False,False
86c1fefa-f306-492b-92f7-97e0147f0b76,148 IGS,IGS,05067100090000,37.0935363769531,-107.718864440918,37.0913467407227,-107.716041564941,,LA PLATA,Colorado,CATAMOUNT ENERGY PARTNERS LLC,CATAMOUNT ENERGY PARTNERS LLC,PR,,IGNACIO BLANCO,"N-COM ",DIRECTIONAL,,33N,8W,21,,3595,,254,0,6786,0,3/16/2018 1:21:18 AM,1/1/2018 12:00:00 AM,1/1/2018 12:00:00 AM,,9/20/2017 12:00:00 AM,,,,3084,0,851,0,3084,851,514,False,False,False,False,True,False,False
88cf6f84-483c-40ed-bc4d-5875af027df6,123B IGW,IGW,05067100080000,37.1288528442383,-107.763137817383,37.1310234069824,-107.758247375488,,LA PLATA,Colorado,CATAMOUNT ENERGY PARTNERS LLC,CATAMOUNT ENERGY PARTNERS LLC,PR,,IGNACIO BLANCO,"N-COM ",DIRECTIONAL,,33N,8W,6,,3755,,556,0,6456,0,4/3/2018 7:09:19 PM,1/1/2018 12:00:00 AM,1/1/2018 12:00:00 AM,,9/11/2017 12:00:00 AM,,,,3182,0,1543,0,3182,1543,530.3333,False,False,False,False,True,False,False
d5a69546-a42f-4d84-b014-2ef65161e569,145B IGS,IGS,05067100100000,37.0935020446777,-107.735542297363,37.0947494506836,-107.741302490234,,LA PLATA,Colorado,CATAMOUNT ENERGY PARTNERS LLC,,PR,,IGNACIO BLANCO,"FRLDC ",DIRECTIONAL,,33N,8W,20,,3950,3378,542,0,6752,0,4/3/2018 7:09:17 PM,1/1/2018 12:00:00 AM,1/1/2018 12:00:00 AM,,,,11/8/2017 12:00:00 AM,,5060,0,1263,0,5060,1263,843.3333,False,False,False,False,True,False,False
3afd0837-9b69-4523-bdf4-b7304f626fb1,3 Hahn,HAHN,05067100110000,37.0996170043945,-107.70157623291,37.10205078125,-107.69799041748,,LA PLATA,Colorado,CATAMOUNT ENERGY PARTNERS LLC,CATAMOUNT ENERGY PARTNERS LLC,PR,,IGNACIO BLANCO,"N-COM ",DIRECTIONAL,,33N,8W,15,,3678,,352,0,6710,0,3/16/2018 1:21:19 AM,1/1/2018 12:00:00 AM,1/1/2018 12:00:00 AM,,10/18/2017 12:00:00 AM,,,,1277,0,402,0,1277,402,212.8333,False,False,False,False,True,False,False
85f88048-142e-4b8d-9a94-c6623b6cb933,EAST VACUUM (GSA) UNIT #528,EAST VACUUM (GSA) UNIT,3002542116,32.7939453125,-103.469192504883,32.7939453125,-103.469192504883,,LEA,New Mexico,CONOCOPHILLIPS COMPANY,CONOCOPHILLIPS COMPANY,Active,OIL,,GRAYBURG-SAN ANDRES,DIRECTIONAL,,17S,35E,33,,5187,5179,,0,3948,0,11/17/2017 11:21:29 PM,1/1/2018 12:00:00 AM,1/1/2018 12:00:00 AM,,9/15/2014 12:00:00 AM,,8/22/2017 12:00:00 AM,,4306,17,164006,17,4306,164006,734.6667,False,False,False,True,True,False,False
7f41de2f-5269-43e2-a647-13cb339af8f8,UTE TRIBAL 1-21-3-2E,,4304754414,40.2122116088867,-109.768348693848,40.2130508422852,-109.766975402832,,UINTAH,Utah,CRESCENT POINT ENERGY U.S. CORP,,PRODUCING,OIL,RANDLETT,WASATCH,DIRECTIONAL,,3.0S,2.0E,21,,0,,489.666870117188,0,0,0,10/21/2017 1:46:18 AM,1/1/2018 12:00:00 AM,1/1/2018 12:00:00 AM,,,,,,0,25,94,25,0,94,25,False,False,False,False,True,False,False
d17fd455-dce3-42f9-987c-99ace4789b35,COLEMAN CORDOVA 13.5-28-3-1E-H1,,4304754037,40.1847381591797,-109.887603759766,40.172233581543,-109.890289306641,,UINTAH,Utah,CRESCENT POINT ENERGY U.S. CORP,,PRODUCING,OIL,RANDLETT,CASTLE PEAK,DIRECTIONAL,,3.0S,1.0E,33,,0,,612.348571777344,0,0,0,10/21/2017 1:46:07 AM,1/1/2018 12:00:00 AM,1/1/2018 12:00:00 AM,,,,,,1276,11883,35299,11883,1276,35299,12095.67,False,False,False,False,True,False,False
8a97ca63-29cd-4df8-92b9-a82e9336bb80,BRAINARD 12L #001,BRAINARD 12L,3001543300,32.7592468261719,-104.339050292969,32.7592468261719,-104.339050292969,,EDDY,New Mexico,"LIME ROCK RESOURCES II-A, L.P.","LIME ROCK RESOURCES II-A, L.P.",Active,OIL,,GLORIETA-YESO,DIRECTIONAL,,18S,26E,12,,4500,4416,,0,3297,0,11/17/2017 4:20:37 PM,1/1/2018 12:00:00 AM,1/1/2018 12:00:00 AM,,8/14/2015 12:00:00 AM,,12/6/2017 12:00:00 AM,,257,328,27451,328,257,27451,370.8333,False,False,False,True,True,False,False
3de68b9d-d88c-4ce4-b488-71b7d10b127a,Bleazard 3-8B1E,,4304755780,40.3283500671387,-109.915397644043,40.3283500671387,-109.915397644043,,UINTAH,Utah,"EP ENERGY E&P COMPANY, L.P.",,PRODUCING,OIL,BLUEBELL,WASATCH,DIRECTIONAL,,2.0S,1.0E,8,,0,,,0,0,0,10/21/2017 1:46:57 AM,1/1/2018 12:00:00 AM,1/1/2018 12:00:00 AM,,9/6/2017 12:00:00 AM,,,,26403,14165,13280,14165,26403,13280,18565.5,False,False,False,False,True,False,False
33919bb8-8e3f-4801-a24a-d6744617ea94,RICHARD 2734-1HX,063-222605-0-0000 : RICHARD,35063246830000,35.0591659545898,-96.338249206543,35.0591659545898,-96.338249206543,,HUGHES,Oklahoma,CORTERRA ENERGY OPERATING LLC,CORTERRA ENERGY OPERATING LLC,PERMIT,UNKNOWN,,WOODFORD,HORIZONTAL,,7N,9E,22,,15500,5000,10270,0,840,0,9/15/2017 4:26:23 PM,1/1/2018 12:00:00 AM,1/1/2018 12:00:00 AM,,7/10/2017 12:00:00 AM,,1/1/1900 12:00:00 AM,,2561,0,0,0,2561,0,426.8333,False,True,False,True,True,False,False
7c5da16c-2ec2-4cce-9da6-68ba85244c4c,RUBY 2 STATE COM #603H,RUBY 2 STATE COM,3002544061,32.0790977478027,-103.442100524902,32.0790977478027,-103.442100524902,,LEA,New Mexico,"EOG RESOURCES, INC.",,Active,OIL,,BONE SPRING,HORIZONTAL,,26S,34E,2,,17282,12491,4791,0,3295,0,11/17/2017 10:05:21 PM,1/1/2018 12:00:00 AM,1/1/2018 12:00:00 AM,,9/28/2017 12:00:00 AM,,,,32583,19097,65423,19097,32583,65423,24527.5,False,False,False,True,True,False,False
6e23825f-b2a2-4c43-9136-785b2a183e99,RUBY 2 STATE COM #602H,RUBY 2 STATE COM,3002544060,32.0791053771973,-103.44514465332,32.0791053771973,-103.44514465332,,LEA,New Mexico,"EOG RESOURCES, INC.",,Active,OIL,,BONE SPRING,HORIZONTAL,,26S,34E,2,,17247,12536,4711,0,3304,0,11/17/2017 10:06:25 PM,1/1/2018 12:00:00 AM,1/1/2018 12:00:00 AM,,9/28/2017 12:00:00 AM,,10/5/2017 12:00:00 AM,,40970,25760,92248,25760,40970,92248,32588.33,False,False,False,True,True,False,False
ab3bb222-0d05-47d0-854d-5fd5b153fb34,GREEN WAVE 20 32 FEDERAL STATE COM #003H,GREEN WAVE 20 32 FEDERAL STATE COM,3002543184,32.0282897949219,-103.499351501465,32.0282897949219,-103.499351501465,,LEA,New Mexico,"DEVON ENERGY PRODUCTION COMPANY, LP","DEVON ENERGY PRODUCTION COMPANY, LP",Active,OIL,,BONE SPRING,HORIZONTAL,,26S,34E,20,,20725,10917,9808,0,3355,0,11/17/2017 6:05:55 PM,1/1/2018 12:00:00 AM,1/1/2018 12:00:00 AM,,8/18/2017 12:00:00 AM,,8/28/2017 12:00:00 AM,,5537,1032,12395,1032,5537,12395,1954.833,False,False,False,True,True,False,False
be01ee1e-1988-48b9-a6f3-6943eeeb07b4,CASS 16 STATE #004H,CASS 16 STATE,3001544370,32.3066215515137,-104.202743530273,32.3066215515137,-104.202743530273,,EDDY,New Mexico,MARATHON OIL PERMIAN LLC,,Active,OIL,,BONE SPRING,HORIZONTAL,,23S,27E,16,,11830,7247,4583,0,3160,0,11/17/2017 3:11:57 PM,1/1/2018 12:00:00 AM,1/1/2018 12:00:00 AM,,8/7/2017 12:00:00 AM,,8/18/2017 12:00:00 AM,,15244,7505,36803,7505,15244,36803,10045.67,False,False,False,True,True,False,False
9344faa9-fc22-4d13-8369-16b4a08d3239,CEDAR LAKE FEDERAL CA #725H,CEDAR LAKE FEDERAL CA,3001544399,32.8480262756348,-103.91520690918,32.8480262756348,-103.91520690918,,EDDY,New Mexico,Apache Corporation,,Active,OIL,,GLORIETA-YESO,HORIZONTAL,,17S,31E,7,,9385,5363,4022,0,3723,0,11/17/2017 3:46:12 PM,1/1/2018 12:00:00 AM,1/1/2018 12:00:00 AM,,8/17/2017 12:00:00 AM,,10/3/2017 12:00:00 AM,,10682,9303,15280,9303,10682,15280,11083.33,False,False,False,True,True,False,False
a3818020-2e3a-4738-b82b-e31601bcdd4b,DERRINGER 18 B3LI FEDERAL #002H,DERRINGER 18 B3LI FEDERAL,3001544431,32.5716857910156,-104.121719360352,32.5716857910156,-104.121719360352,,EDDY,New Mexico,MEWBOURNE OIL CO,,Active,OIL,,BONE SPRING,HORIZONTAL,,20S,29E,18,,13410,9000,4410,0,3255,0,11/17/2017 5:24:44 PM,1/1/2018 12:00:00 AM,1/1/2018 12:00:00 AM,,9/6/2017 12:00:00 AM,,9/17/2017 12:00:00 AM,,41027,25426,50525,25426,41027,50525,32263.83,False,False,False,True,True,False,False
0db69f39-926d-43bc-8a4a-653dbac0e975,J B WATKINS 274,J B WATKINS,17023232060000,30.0253467559814,-93.6093673706055,30.0239810943604,-93.6067199707031,,CAMERON,Louisiana,"ROBERTSON ENERGY, LLC",,ACTIVE - PRODUCING,OIL,BLACK BAYOU,,HORIZONTAL,,12S,12W,8,,6358,6358,150,0,5,0,10/4/2017 9:12:40 PM,1/1/2018 12:00:00 AM,1/1/2018 12:00:00 AM,,9/26/2017 12:00:00 AM,,10/10/2017 12:00:00 AM,3/20/2018 12:00:00 AM,4050.636,833,833,833,4050.636,833,1508.106,False,False,False,True,True,False,False
53cc3209-b120-47ff-bc24-ecda794808ec,ADLES MAILHES ETAL 005,ADLES MAILHES ETAL,17113225110000,29.9925918579102,-92.146484375,29.9936294555664,-92.1512756347656,,VERMILION,Louisiana,"DUNN EXPLORATION COMPANY, LLC",,ACTIVE - PRODUCING,OIL,ABBEVILLE,4900,HORIZONTAL,,12S,3E,44,,6197,5781,416,0,0,0,12/7/2017 5:31:11 PM,1/1/2018 12:00:00 AM,1/1/2018 12:00:00 AM,,10/16/2017 12:00:00 AM,,10/28/2017 12:00:00 AM,1/3/2018 12:00:00 AM,582,11290,11290,11290,582,11290,11387,False,False,False,True,True,False,False
91d472c6-8452-41cb-9335-a3f9cf357c03,RUBY 2 STATE COM #704H,RUBY 2 STATE COM,3002543894,32.0790977478027,-103.442329406738,32.0790977478027,-103.442329406738,,LEA,New Mexico,"EOG RESOURCES, INC.",,Active,OIL,,WOLFCAMP,HORIZONTAL,,26S,34E,2,,17438,12710,4728,0,3294,0,11/17/2017 6:47:59 PM,1/1/2018 12:00:00 AM,1/1/2018 12:00:00 AM,,9/8/2017 12:00:00 AM,,8/19/2017 12:00:00 AM,,20134,14908,43702,14908,20134,43702,18263.67,False,False,False,True,True,False,False
7d00533e-552d-40c8-a21a-51eebb70de4f,RUBY 2 STATE COM #601Y,RUBY 2 STATE COM,3002544103,32.0791053771973,-103.445404052734,32.0791053771973,-103.445404052734,,LEA,New Mexico,"EOG RESOURCES, INC.",,Active,OIL,,BONE SPRING,HORIZONTAL,,26S,34E,2,,17288,12550,4738,0,3304,0,11/17/2017 6:36:35 PM,1/1/2018 12:00:00 AM,1/1/2018 12:00:00 AM,,10/10/2017 12:00:00 AM,,10/26/2017 12:00:00 AM,,8907,4118,85769,4118,8907,85769,5602.5,False,False,False,True,True,False,False
67feb3cf-5c18-4a67-81ad-16c9165d23f3,UTE TRIBAL 13-16-3-1E-H1,,4304755380,40.2120018005371,-109.892501831055,40.2130088806152,-109.890274047852,,UINTAH,Utah,CRESCENT POINT ENERGY U.S. CORP,,PRODUCING,OIL,INDEPENDENCE,CASTLE PEAK,HORIZONTAL,,3.0S,1.0E,21,,0,,737.493896484375,0,0,0,10/21/2017 1:46:46 AM,1/1/2018 12:00:00 AM,1/1/2018 12:00:00 AM,,,,,,8325,15779,16471,15779,8325,16471,17166.5,False,False,False,False,True,False,False
430905d9-8e4b-40b3-97d4-9aa7581e830d,FOGHORN 32 STATE COM #209H,FOGHORN 32 STATE COM,3002543923,32.3539390563965,-103.601974487305,32.3539390563965,-103.601974487305,,LEA,New Mexico,"EOG RESOURCES, INC.",,Active,OIL,,"BONE SPRING, EAST",HORIZONTAL,,22S,33E,32,,14259,9456,4803,0,3712,0,11/18/2017 12:48:13 AM,1/1/2018 12:00:00 AM,1/1/2018 12:00:00 AM,,8/15/2017 12:00:00 AM,,8/28/2017 12:00:00 AM,,43427,32804,120051,32804,43427,120051,40041.83,False,False,False,True,True,False,False
f23ba963-ceaa-4a0b-b901-2a15c4507b87,RUBY 2 STATE COM #705H,RUBY 2 STATE COM,3002543933,32.0790977478027,-103.44221496582,32.0790977478027,-103.44221496582,,LEA,New Mexico,"EOG RESOURCES, INC.",,Active,OIL,,WOLFCAMP,HORIZONTAL,,26S,34E,2,,17551,12764,4787,0,3295,0,11/17/2017 5:25:51 PM,1/1/2018 12:00:00 AM,1/1/2018 12:00:00 AM,,9/8/2017 12:00:00 AM,,8/22/2017 12:00:00 AM,,24832,19158,55294,19158,24832,55294,23296.67,False,False,False,True,True,False,False
3fc4e271-942f-4e1d-b2a7-7da06c9c32d4,BEOWULF 33 STATE COM #301H,BEOWULF 33 STATE COM,3002543936,32.2549629211426,-103.379837036133,32.2549629211426,-103.379837036133,,LEA,New Mexico,"EOG RESOURCES, INC.",,Active,OIL,,LWR BONE SPRIN,HORIZONTAL,,23S,35E,33,,17442,9962,7480,0,3418,0,11/17/2017 10:04:07 PM,1/1/2018 12:00:00 AM,1/1/2018 12:00:00 AM,,8/25/2017 12:00:00 AM,,9/9/2017 12:00:00 AM,,13241,6340,94874,6340,13241,94874,8546.833,False,False,False,True,True,False,False
0bcc9e07-248f-4533-8b36-b79a340c413b,SD WE 24 FEDERAL P24 #006H,SD WE 24 FEDERAL P24,3002543673,32.0214881896973,-103.623725891113,32.0214881896973,-103.623725891113,,LEA,New Mexico,CHEVRON U.S.A. INC.,CHEVRON U S A INC,Active,OIL,,BONE SPRING,HORIZONTAL,,26S,32E,24,,19286,9083,10203,0,3137,0,11/17/2017 6:12:20 PM,1/1/2018 12:00:00 AM,1/1/2018 12:00:00 AM,,3/10/2017 12:00:00 AM,,8/11/2017 12:00:00 AM,,14558,9935,37134,9935,14558,37134,12361.33,False,False,False,True,True,False,False
b563fa43-6dff-43ae-9c5a-6287df3a96ef,SD WE 24 FEDERAL P24 #007H,SD WE 24 FEDERAL P24,3002543675,32.0214881896973,-103.623649597168,32.0214881896973,-103.623649597168,,LEA,New Mexico,CHEVRON U.S.A. INC.,CHEVRON U S A INC,Active,OIL,,BONE SPRING,HORIZONTAL,,26S,32E,24,,19371,9121,10250,0,3136,0,11/17/2017 8:49:09 PM,1/1/2018 12:00:00 AM,1/1/2018 12:00:00 AM,,3/10/2017 12:00:00 AM,,8/10/2017 12:00:00 AM,,16598,11125,42305,11125,16598,42305,13891.33,False,False,False,True,True,False,False
7dc797d6-64ec-4f9a-a22e-75fabae5731c,SD WE 24 FEDERAL P24 #005H,SD WE 24 FEDERAL P24,3002543674,32.0214881896973,-103.623809814453,32.0214881896973,-103.623809814453,,LEA,New Mexico,CHEVRON U.S.A. INC.,CHEVRON U S A INC,Active,OIL,,BONE SPRING,HORIZONTAL,,26S,32E,24,,19338,9088,10250,0,3138,0,11/17/2017 6:13:43 PM,1/1/2018 12:00:00 AM,1/1/2018 12:00:00 AM,,3/10/2017 12:00:00 AM,,8/12/2017 12:00:00 AM,,18114,11865,50222,11865,18114,50222,14884,False,False,False,True,True,False,False
d5e789c2-8715-44d7-bec1-be63b86d4d1d,STOVE PIPE FEDERAL COM #001H,STOVE PIPE FEDERAL COM,3002543838,32.1655693054199,-103.399696350098,32.1655693054199,-103.399696350098,,LEA,New Mexico,COG OPERATING LLC,,Active,OIL,,WOLFBONE,HORIZONTAL,,25S,35E,6,,22017,12415,9602,0,3295,0,11/17/2017 9:57:38 PM,1/1/2018 12:00:00 AM,1/1/2018 12:00:00 AM,,5/30/2017 12:00:00 AM,,7/11/2017 12:00:00 AM,,5977,4972,7808,4972,5977,7808,5968.167,False,False,False,True,True,False,False
1ead228d-29a7-4694-b082-1f2012138e2e,VIRGIL 35-21-19 1HC,153-222260-0-0000 : VIRGIL 35-21-19,35153236050000,36.2476081848145,-99.2089996337891,36.2524871826172,-99.2086334228516,,WOODWARD,Oklahoma,CHESAPEAKE OPERATING LLC,CHESAPEAKE OPERATING LLC,AC,GAS,,MISSISSIPPIAN,HORIZONTAL,,21N,19W,35,,13014,9828,9910,1906,1881,0,9/25/2017 11:53:15 AM,1/1/2018 12:00:00 AM,1/1/2018 12:00:00 AM,,6/27/2017 12:00:00 AM,,7/24/2017 12:00:00 AM,,12355,0,0,0,12355,0,2059.167,False,True,False,True,True,False,False
61a820c6-348a-4088-bf50-2a119a460211,JAMES MILLER FIU 1RR-6-31XH,039-218947-0-0000 : JAMES MILLER FIU,35039224950000,35.7117004394531,-98.7223587036133,35.7117004394531,-98.7223587036133,,CUSTER,Oklahoma,CONTINENTAL RESOURCES INC,CONTINENTAL RESOURCES INC,AC,GAS,,WOODFORD,HORIZONTAL,,14N,14W,6,,24845,14875,9970,0,1731,0,10/7/2017 6:44:08 PM,1/1/2018 12:00:00 AM,1/1/2018 12:00:00 AM,,,,12/10/2016 12:00:00 AM,,271143,0,0,0,271143,0,45190.5,False,True,False,True,True,False,False
9f6a2f53-ae29-449f-9176-caeae3ced40c,RAMBO 2-22H,063-222604-0-0000 : RAMBO,35063246890000,35.0591125488281,-96.338249206543,35.0591125488281,-96.338249206543,,HUGHES,Oklahoma,CORTERRA ENERGY OPERATING LLC,CORTERRA ENERGY OPERATING LLC,PERMIT,GAS,,WOODFORD,HORIZONTAL,,7N,9E,22,,10100,5200,4953,855,839,0,9/15/2017 4:27:17 PM,1/1/2018 12:00:00 AM,1/1/2018 12:00:00 AM,,7/31/2017 12:00:00 AM,,8/11/2017 12:00:00 AM,,52457,0,0,0,52457,0,8742.833,False,True,False,True,True,False,False
53555017-cd1d-4b0b-b6df-43c977c00573,CEDAR CANYON 27 28 FEDERAL #044H,CEDAR CANYON 27 28 FEDERAL,3001544438,32.1844902038574,-103.999580383301,32.1844902038574,-103.999580383301,,EDDY,New Mexico,OXY USA INC.,,Active,GAS,,WOLFCAMP (GAS),HORIZONTAL,,24S,29E,29,,20285,10106,10179,0,2937,0,11/17/2017 4:49:56 PM,1/1/2018 12:00:00 AM,1/1/2018 12:00:00 AM,,9/18/2017 12:00:00 AM,,9/27/2017 12:00:00 AM,,155615,90128,488102,90128,155615,488102,116063.8,False,False,False,False,True,False,False
14580e40-f939-433e-94e1-589a04ffd088,CEDAR CANYON 27 28 FEDERAL #043H,CEDAR CANYON 27 28 FEDERAL,3001544437,32.1845703125,-103.999565124512,32.1845703125,-103.999565124512,,EDDY,New Mexico,OXY USA INC.,,Active,GAS,,WOLFCAMP (GAS),HORIZONTAL,,24S,29E,29,,20270,10097,10173,0,2937,0,11/17/2017 7:18:24 PM,1/1/2018 12:00:00 AM,1/1/2018 12:00:00 AM,,9/18/2017 12:00:00 AM,,9/28/2017 12:00:00 AM,,100008,56590,320778,56590,100008,320778,73258,False,False,False,True,True,False,False
22977fc2-ac43-4926-9afd-c8448b5b40c7,STERLING 20 STATE #002H,STERLING 20 STATE,3001542732,32.2983322143555,-104.204849243164,32.2983322143555,-104.204849243164,,EDDY,New Mexico,MARATHON OIL PERMIAN LLC,"BC OPERATING, INC.",Active,GAS,,WOLFCAMP (GAS),HORIZONTAL,,23S,27E,17,,13979,9045,4934,0,3169,0,11/17/2017 6:42:39 PM,1/1/2018 12:00:00 AM,1/1/2018 12:00:00 AM,,7/7/2017 12:00:00 AM,,9/21/2017 12:00:00 AM,,24812,9347,42774,9347,24812,42774,13482.33,False,False,False,True,True,False,False
11cf397e-98f8-413e-a017-cd3d8e1f1634,CASS 16 STATE #002H,CASS 16 STATE,3001542733,32.3076133728027,-104.204597473145,32.3076133728027,-104.204597473145,,EDDY,New Mexico,MARATHON OIL PERMIAN LLC,"BC OPERATING, INC.",Active,GAS,,WOLFCAMP (GAS),HORIZONTAL,,23S,27E,17,,14080,9118,4962,0,3164,0,11/17/2017 5:20:24 PM,1/1/2018 12:00:00 AM,1/1/2018 12:00:00 AM,,7/7/2017 12:00:00 AM,,7/23/2017 12:00:00 AM,,21984,9164,32864,9164,21984,32864,12828,False,False,False,True,True,False,False
27c90a6b-cc67-4371-8879-21447f96a900,FOREHAND RANCH 22 STATE #008H,FOREHAND RANCH 22 STATE,3001543555,32.2895698547363,-104.180084228516,32.2895698547363,-104.180084228516,,EDDY,New Mexico,"CAZA OPERATING, LLC","CAZA OPERATING, LLC",Active,GAS,,WOLFCAMP (GAS),HORIZONTAL,,23S,27E,22,,16790,9180,7610,0,3149,0,11/17/2017 3:58:33 PM,1/1/2018 12:00:00 AM,1/1/2018 12:00:00 AM,,2/1/2017 12:00:00 AM,,5/1/2017 12:00:00 AM,,21834,10943,89342,10943,21834,89342,14582,False,False,False,True,True,False,False
61dc199c-8b18-443e-8618-35eb5a472712,BOSTON 7 W0MP FEE #002H,BOSTON 7 W0MP FEE,3001544463,32.2269287109375,-104.134346008301,32.2269287109375,-104.134346008301,,EDDY,New Mexico,MEWBOURNE OIL CO,,Active,GAS,,WOLFCAMP (GAS),HORIZONTAL,,24S,28E,7,,14135,9374,4761,0,3087,0,11/17/2017 3:58:14 PM,1/1/2018 12:00:00 AM,1/1/2018 12:00:00 AM,,10/12/2017 12:00:00 AM,,11/21/2017 12:00:00 AM,,1472,273,23917,273,1472,23917,518.3333,False,False,False,True,True,False,False
a3468f88-a191-4100-9f8e-2355e17d1eb8,FOREHAND RANCH 22 STATE #009H,FOREHAND RANCH 22 STATE,3001544063,32.2895698547363,-104.17992401123,32.2895698547363,-104.17992401123,,EDDY,New Mexico,"CAZA OPERATING, LLC","CAZA OPERATING, LLC",New,GAS,,WOLFCAMP (GAS),HORIZONTAL,,23S,27E,22,,16734,9804,6930,0,3149,0,11/17/2017 4:21:43 PM,1/1/2018 12:00:00 AM,1/1/2018 12:00:00 AM,,2/20/2017 12:00:00 AM,,4/5/2017 12:00:00 AM,,49894,9527,85358,9527,49894,85358,17842.67,False,False,False,True,True,False,False
34e06e8e-a7f2-45dd-8e7b-9feb18011fe8,CASS 16 STATE #003H,CASS 16 STATE,3001543869,32.3067054748535,-104.202743530273,32.3067054748535,-104.202743530273,,EDDY,New Mexico,MARATHON OIL PERMIAN LLC,"BC OPERATING, INC.",Active,GAS,,WOLFCAMP (GAS),HORIZONTAL,,23S,28E,16,,13777,9215,4562,0,3160,0,11/17/2017 6:01:30 PM,1/1/2018 12:00:00 AM,1/1/2018 12:00:00 AM,,7/7/2017 12:00:00 AM,,7/1/2017 12:00:00 AM,,20110,8860,24655,8860,20110,24655,12211.67,False,False,False,True,True,False,False
98d604a3-36b0-485e-9044-58e648cca2ea,Bonanza State 20-15H,,4304755745,40.0173683166504,-109.123199462891,40.0173683166504,-109.123199462891,,UINTAH,Utah,WHITING OIL & GAS CORPORATION,,PRODUCING,GAS,WILDCAT,MANCOS B,HORIZONTAL,,9.0S,25.0E,20,,0,,,0,0,0,10/21/2017 1:46:54 AM,2/1/2018 12:00:00 AM,2/1/2018 12:00:00 AM,,8/9/2017 12:00:00 AM,,,,6529,1928,28230,1928,6529,28230,3016.167,False,False,False,False,True,False,False
f6bd0987-635d-42be-ad38-4b476a6eeb9b,HAMON A FEDERAL COM #009H,HAMON A FEDERAL COM,3002543250,32.5794944763184,-103.604957580566,32.5794944763184,-103.604957580566,,LEA,New Mexico,"LEGACY RESERVES OPERATING, LP","LEGACY RESERVES OPERATING, LP",New,OIL,,"BONE SPRING, EAST",HORIZONTAL,,20S,34E,18,,16000,10837,5163,0,3610,0,11/18/2017 12:32:43 AM,1/1/2018 12:00:00 AM,1/1/2018 12:00:00 AM,,5/18/2016 12:00:00 AM,,7/1/2017 12:00:00 AM,,87,1273,819,1273,87,819,1287.5,False,False,False,True,True,False,False
f47b585e-534f-46fa-b44e-3dc26ef41de2,MERCHANT STATE UNIT #503H,MERCHANT STATE UNIT,3002543909,32.442268371582,-103.544479370117,32.442268371582,-103.544479370117,,LEA,New Mexico,"ADVANCE ENERGY PARTNERS HAT MESA, LLC",,New,OIL,,BONE SPRING,HORIZONTAL,,21S,33E,35,,22000,22000,,0,3680,0,11/17/2017 8:48:09 PM,2/1/2018 12:00:00 AM,2/1/2018 12:00:00 AM,,9/21/2017 12:00:00 AM,,9/15/2017 12:00:00 AM,,0,2976,56915,2976,0,56915,2976,False,False,False,False,True,False,False
25038df3-b05f-4fbb-86ab-29403404620c,RUBY 2 STATE COM #702H,RUBY 2 STATE COM,3002543892,32.0791053771973,-103.445465087891,32.0791053771973,-103.445465087891,,LEA,New Mexico,EOG RESOURCES INC,,New,OIL,,WOLFCAMP,HORIZONTAL,,26S,34E,2,,17565,17565,,0,3304,0,11/17/2017 9:55:37 PM,1/1/2018 12:00:00 AM,1/1/2018 12:00:00 AM,,9/8/2017 12:00:00 AM,,8/6/2017 12:00:00 AM,,15758,10039,63461,10039,15758,63461,12665.33,False,False,False,False,True,False,False
69eece01-8351-43af-b858-16c53cc31670,COTTON DRAW UNIT #513H,COTTON DRAW UNIT,3001544199,32.1817207336426,-103.72883605957,32.1817207336426,-103.72883605957,,EDDY,New Mexico,"DEVON ENERGY PRODUCTION COMPANY, LP",,New,OIL,,BONE SPRING (O),HORIZONTAL,,24S,31E,25,,15117,10240,4877,0,3513,0,11/17/2017 5:38:04 PM,1/1/2018 12:00:00 AM,1/1/2018 12:00:00 AM,,5/23/2017 12:00:00 AM,,6/14/2017 12:00:00 AM,,14571,8236,34775,8236,14571,34775,10664.5,False,False,False,True,True,False,False
8e48350d-4ed9-4d55-8d42-ac88f72984e4,AGATE PWU 21 22 #062H,AGATE PWU 21 22,3001544201,32.642894744873,-104.090179443359,32.642894744873,-104.090179443359,,EDDY,New Mexico,"DEVON ENERGY PRODUCTION COMPANY, LP",,New,OIL,,"BONE SPRING, WEST",HORIZONTAL,,19S,29E,20,,19464,19464,,0,3233,0,11/17/2017 3:44:35 PM,1/1/2018 12:00:00 AM,1/1/2018 12:00:00 AM,,5/23/2017 12:00:00 AM,,6/14/2017 12:00:00 AM,,22879,20017,12829,20017,22879,12829,23830.17,False,False,False,False,True,False,False
20c3956f-4712-48e1-a0b6-24194bc93e29,COTTONWOOD 28 33 FEDERAL WCA #004H,COTTONWOOD 28 33 FEDERAL WCA,3001543690,32.0210304260254,-104.292404174805,32.0210304260254,-104.292404174805,,EDDY,New Mexico,"CHISHOLM ENERGY OPERATING, LLC",NEARBURG PRODUCING CO,Active,OIL,,WOLFCAMP (GAS),HORIZONTAL,,26S,26E,21,,15744,8373,7371,0,3384,0,11/17/2017 7:45:04 PM,1/1/2018 12:00:00 AM,1/1/2018 12:00:00 AM,,9/1/2017 12:00:00 AM,,10/15/2017 12:00:00 AM,,16223,4647,80287,4647,16223,80287,7350.833,False,False,False,True,True,False,False
40238563-c89d-434b-bbbf-29cee824ede8,COTTONWOOD 28 33 FEDERAL WCA #003H,COTTONWOOD 28 33 FEDERAL WCA,3001543687,32.0210304260254,-104.292594909668,32.0210304260254,-104.292594909668,,EDDY,New Mexico,"CHISHOLM ENERGY OPERATING, LLC",NEARBURG PRODUCING CO,Active,OIL,,WOLFCAMP (GAS),HORIZONTAL,,26S,26E,21,,15795,8451,7344,0,3382,0,11/17/2017 3:55:20 PM,1/1/2018 12:00:00 AM,1/1/2018 12:00:00 AM,,9/1/2017 12:00:00 AM,,9/19/2017 12:00:00 AM,,12289,5252,78888,5252,12289,78888,7300.167,False,False,False,True,True,False,False
d4e8d5a5-e9bd-4ddd-b988-ce549128a5c4,PAVO MACHO 31 32 B2EH FEDERAL COM #001H,PAVO MACHO 31 32 B2EH FEDERAL COM,3001543784,32.7057037353516,-104.121276855469,32.7057037353516,-104.121276855469,,EDDY,New Mexico,MEWBOURNE OIL CO,MEWBOURNE OIL CO,Active,OIL,,"BONE SPRING, EAST",HORIZONTAL,,18S,29E,31,,17170,7700,9470,0,3405,0,11/17/2017 7:54:30 PM,1/1/2018 12:00:00 AM,1/1/2018 12:00:00 AM,,5/12/2016 12:00:00 AM,,11/11/2017 12:00:00 AM,,2089,2106,13129,2106,2089,13129,2454.167,False,False,False,True,True,False,False
85c07af8-ce1d-4952-931b-cf9f4c1b2394,SALADO DRAW 10 W0PA FEDERAL #003H,SALADO DRAW 10 W0PA FEDERAL,3002543577,32.0499153137207,-103.55305480957,32.0499153137207,-103.55305480957,,LEA,New Mexico,MEWBOURNE OIL CO,MEWBOURNE OIL CO,Active,OIL,,WOLFCAMP (GAS),HORIZONTAL,,26S,33E,15,,17290,12327,4963,0,3325,0,11/18/2017 12:47:34 AM,1/1/2018 12:00:00 AM,1/1/2018 12:00:00 AM,,5/9/2017 12:00:00 AM,,5/12/2017 12:00:00 AM,,69132,40734,94895,40734,69132,94895,52256,False,False,False,True,True,False,False
8380b2a9-b99e-4f5c-9516-99d482aa9df1,COTTON DRAW UNIT #291H,COTTON DRAW UNIT,3001544106,32.1817207336426,-103.728927612305,32.1817207336426,-103.728927612305,,EDDY,New Mexico,"DEVON ENERGY PRODUCTION COMPANY, LP","DEVON ENERGY PRODUCTION COMPANY, LP",New,OIL,,BONE SPRING (O),HORIZONTAL,,24S,31E,25,,15488,10608,4880,0,3513,0,11/17/2017 4:18:54 PM,1/1/2018 12:00:00 AM,1/1/2018 12:00:00 AM,,3/21/2017 12:00:00 AM,,6/11/2017 12:00:00 AM,,22822,12186,19085,12186,22822,19085,15989.67,False,False,False,True,True,False,False
ecfd2150-6037-4f2d-8f52-b0fdae12e330,COTTON DRAW UNIT #511H,COTTON DRAW UNIT,3001544068,32.1872024536133,-103.729316711426,32.1872024536133,-103.729316711426,,EDDY,New Mexico,"DEVON ENERGY PRODUCTION COMPANY, LP","DEVON ENERGY PRODUCTION COMPANY, LP",New,OIL,,BONE SPRING (O),HORIZONTAL,,24S,31E,25,,15393,15393,,0,3512,0,11/17/2017 7:08:15 PM,1/1/2018 12:00:00 AM,1/1/2018 12:00:00 AM,,2/24/2017 12:00:00 AM,,6/24/2017 12:00:00 AM,,6067,3341,8233,3341,6067,8233,4352.167,False,False,False,False,True,False,False
74b48660-575f-4ad6-9b5e-64424ecb2935,AGATE PWU 21 22 #061H,AGATE PWU 21 22,3001544121,32.6483383178711,-104.08731842041,32.6483383178711,-104.08731842041,,EDDY,New Mexico,"DEVON ENERGY PRODUCTION COMPANY, LP","DEVON ENERGY PRODUCTION COMPANY, LP",New,OIL,,"BONE SPRING, WEST",HORIZONTAL,,19S,29E,21,,18854,18854,,0,3314,0,11/17/2017 3:03:59 PM,1/1/2018 12:00:00 AM,1/1/2018 12:00:00 AM,,3/31/2017 12:00:00 AM,,5/15/2017 12:00:00 AM,,34053,15803,10590,15803,34053,10590,21478.5,False,False,False,True,True,False,False
880d878e-4e38-4ce3-88ee-d5d28c55d5cd,AGATE PWU 21 22 #010H,AGATE PWU 21 22,3001544120,32.6483383178711,-104.087219238281,32.6483383178711,-104.087219238281,,EDDY,New Mexico,"DEVON ENERGY PRODUCTION COMPANY, LP","DEVON ENERGY PRODUCTION COMPANY, LP",New,OIL,,"BONE SPRING, WEST",HORIZONTAL,,19S,29E,21,,18810,18810,,0,3314,0,11/17/2017 4:50:10 PM,1/1/2018 12:00:00 AM,1/1/2018 12:00:00 AM,,3/31/2017 12:00:00 AM,,4/26/2017 12:00:00 AM,,39415,21341,16344,21341,39415,16344,27910.17,False,False,False,False,True,False,False
23e96e71-7737-487c-a191-6f54124b0672,GREEN WAVE 20 32 FEDERAL STATE COM #001H,GREEN WAVE 20 32 FEDERAL STATE COM,3002543186,32.0275993347168,-103.499549865723,32.0275993347168,-103.499549865723,,LEA,New Mexico,"DEVON ENERGY PRODUCTION COMPANY, LP","DEVON ENERGY PRODUCTION COMPANY, LP",New,OIL,,UPR BONE SPRIN,HORIZONTAL,,26S,34E,20,,19431,10102,9329,0,3357,0,11/17/2017 8:23:46 PM,1/1/2018 12:00:00 AM,1/1/2018 12:00:00 AM,,5/30/2017 12:00:00 AM,,,,742,189,6976,189,742,6976,312.6667,False,False,False,True,True,False,False
c2d7a8fc-d7f4-4f09-8bb6-da096c6db339,HAMON A FEDERAL COM #005H,HAMON A FEDERAL COM,3002543230,32.5965576171875,-103.597480773926,32.5965576171875,-103.597480773926,,LEA,New Mexico,"LEGACY RESERVES OPERATING, LP","LEGACY RESERVES OPERATING, LP",New,OIL,,"BONE SPRING, EAST",HORIZONTAL,,20S,34E,6,,14420,14420,,0,3610,0,11/17/2017 11:20:13 PM,1/1/2018 12:00:00 AM,1/1/2018 12:00:00 AM,,5/11/2016 12:00:00 AM,,6/24/2017 12:00:00 AM,,1805,895,14890,895,1805,14890,1195.833,False,False,False,False,True,False,False
86e025f7-e72e-41ba-89f7-398c498f6ebf,HAMON A FEDERAL COM #011H,HAMON A FEDERAL COM,3002543252,32.5794944763184,-103.604637145996,32.5794944763184,-103.604637145996,,LEA,New Mexico,"LEGACY RESERVES OPERATING, LP","LEGACY RESERVES OPERATING, LP",New,OIL,,"BONE SPRING, EAST",HORIZONTAL,,20S,34E,18,,14315,9404,4911,0,3610,0,11/17/2017 11:20:46 PM,1/1/2018 12:00:00 AM,1/1/2018 12:00:00 AM,,5/18/2016 12:00:00 AM,,8/15/2017 12:00:00 AM,,64,656,2700,656,64,2700,666.6667,False,False,False,True,True,False,False
17e82fcf-8b04-475f-81b8-06469fed67cd,4-62-32-2532C ANSCHUTZ EQUUS FARMS,Anschutz Equus Farms,05123432170000,40.2704315185547,-104.337287902832,40.2694892883301,-104.374870300293,,WELD,Colorado,BARRETT CORPORATION* BILL,,PR,,WATTENBERG,"N-COM ",HORIZONTAL,,4N,62W,33,,16186,,9784,0,4659,0,4/3/2018 7:34:57 PM,1/1/2018 12:00:00 AM,1/1/2018 12:00:00 AM,,5/31/2016 12:00:00 AM,,,,0,0,405,0,0,405,0,False,False,False,False,True,False,False
5055534e-2e1f-4027-8b5b-ffc0b8830915,TOPONOTES UT 13-22 3-3-28-1H,,4301353000,40.2005081176758,-110.217300415039,40.227710723877,-110.216079711914,,DUCHESNE,Utah,NEWFIELD PRODUCTION COMPANY,,PRODUCING,OIL,NORTH MYTON BENCH,UTELAND BUTTE,HORIZONTAL,,3.0S,3.0W,22,,0,,9869.2314453125,0,0,0,10/20/2017 5:27:56 PM,1/1/2018 12:00:00 AM,1/1/2018 12:00:00 AM,,,,,,16110,22847,33261,22847,16110,33261,25532,False,False,False,False,True,False,False
56bd1da6-e7b7-45d9-a701-d0d76b18154b,COLEMAN CORDOVA 14-28-3-1E-H1,,4304754038,40.1847991943359,-109.887603759766,40.198486328125,-109.890312194824,,UINTAH,Utah,CRESCENT POINT ENERGY U.S. CORP,,PRODUCING,OIL,RANDLETT,CASTLE PEAK,HORIZONTAL,,3.0S,1.0E,33,,0,,830.30859375,0,0,0,10/21/2017 1:46:08 AM,1/1/2018 12:00:00 AM,1/1/2018 12:00:00 AM,,,,,,5323,10952,28955,10952,5323,28955,11839.17,False,False,False,False,True,False,False
83680e3f-b140-4d0c-a982-d1a614edc307,Kendall 2-18-3-1E-H2,,4304755121,40.2312889099121,-109.923301696777,40.2167854309082,-109.922966003418,,UINTAH,Utah,CRESCENT POINT ENERGY U.S. CORP,,PRODUCING,OIL,INDEPENDENCE,WASATCH,HORIZONTAL,,3.0S,1.0E,7,,0,,5292.5244140625,0,0,0,10/21/2017 1:46:35 AM,1/1/2018 12:00:00 AM,1/1/2018 12:00:00 AM,,,,,,10874,18424,16941,18424,10874,16941,20236.33,False,False,False,False,True,False,False
d22fcfc2-c747-4e6d-a813-64a72a97b12d,TOPONOTES UT 13-22 3-3-27-34-7H,,4301353001,40.2004699707031,-110.21720123291,40.227710723877,-110.213714599609,,DUCHESNE,Utah,NEWFIELD PRODUCTION COMPANY,,PRODUCING,OIL,NORTH MYTON BENCH,UTELAND BUTTE,HORIZONTAL,,3.0S,3.0W,22,,0,,9937.330078125,0,0,0,10/20/2017 5:27:56 PM,1/1/2018 12:00:00 AM,1/1/2018 12:00:00 AM,,,,,,28313,38043,81922,38043,28313,81922,42761.83,False,False,False,False,True,False,False
e3121a8c-2873-4766-96e8-788341548dc3,Daisy UT 4-26 3-3-26-7H,,4301352981,40.1995506286621,-110.196403503418,40.2286376953125,-110.192443847656,,DUCHESNE,Utah,NEWFIELD PRODUCTION COMPANY,,PRODUCING,OIL,NORTH MYTON BENCH,UTELAND BUTTE,HORIZONTAL,,3.0S,3.0W,26,,0,,10691.193359375,0,0,0,10/20/2017 5:27:54 PM,1/1/2018 12:00:00 AM,1/1/2018 12:00:00 AM,,,,,,8564,10456,26706,10456,8564,26706,11883.33,False,False,False,False,True,False,False
1574caf7-0adb-40c5-a505-d39fb1334eb2,EK 30 BS2 FEDERAL COM #002H,EK 30 BS2 FEDERAL COM,3002543883,32.7019462585449,-103.593894958496,32.7019462585449,-103.593894958496,,LEA,New Mexico,"McElvain Energy, Inc.",,Active,OIL,,BONE SPRING,HORIZONTAL,,18S,34E,30,,14860,9837,5023,0,3894,0,11/17/2017 6:48:05 PM,1/1/2018 12:00:00 AM,1/1/2018 12:00:00 AM,,6/27/2017 12:00:00 AM,,6/28/2017 12:00:00 AM,,1166,6085,11105,6085,1166,11105,6279.333,False,False,False,True,True,False,False
53510097-2cb5-4300-91e6-e6c204845325,EK 31 BS2 FEDERAL COM #001H,EK 31 BS2 FEDERAL COM,3002543884,32.7118034362793,-103.593948364258,32.7118034362793,-103.593948364258,,LEA,New Mexico,"McElvain Energy, Inc.",,Active,OIL,,BONE SPRING,HORIZONTAL,,18S,34E,30,,14796,10022,4774,0,3894,0,11/17/2017 6:11:57 PM,1/1/2018 12:00:00 AM,1/1/2018 12:00:00 AM,,6/27/2017 12:00:00 AM,,7/2/2017 12:00:00 AM,,3195,5857,18237,5857,3195,18237,6389.5,False,False,False,True,True,False,False
8021d580-ef8d-4190-a5d1-216e0fe72fd3,RUBY 2 STATE COM #703H,RUBY 2 STATE COM,3002543893,32.0791053771973,-103.445350646973,32.0791053771973,-103.445350646973,,LEA,New Mexico,"EOG RESOURCES, INC.",,Active,OIL,,WOLFCAMP,HORIZONTAL,,26S,34E,2,,17561,12789,4772,0,3305,0,11/17/2017 5:46:48 PM,1/1/2018 12:00:00 AM,1/1/2018 12:00:00 AM,,9/5/2017 12:00:00 AM,,8/9/2017 12:00:00 AM,,25233,17985,60591,17985,25233,60591,22190.5,False,False,False,True,True,False,False
85e61139-d3ad-44f1-938d-4c0501cc550e,RUBY FEDERAL #100H,RUBY FEDERAL,3002543370,32.8391952514648,-103.787567138672,32.8391952514648,-103.787567138672,,LEA,New Mexico,CONOCOPHILLIPS COMPANY,CONOCOPHILLIPS COMPANY,Active,OIL,,"YESO, WEST",HORIZONTAL,,17S,32E,18,,11400,6046,5354,0,3979,0,11/17/2017 6:24:24 PM,1/1/2018 12:00:00 AM,1/1/2018 12:00:00 AM,,7/20/2016 12:00:00 AM,,6/1/2017 12:00:00 AM,,135,117,31,117,135,31,139.5,False,False,False,True,True,False,False
ae43f99f-7bf9-4c07-94e4-6c0404afda5f,OPHELIA 22 FEDERAL COM #704H,OPHELIA 22 FEDERAL COM,3002544006,32.0356712341309,-103.566635131836,32.0356712341309,-103.566635131836,,LEA,New Mexico,"EOG RESOURCES, INC.",,Active,OIL,,UPPER WOLFCAMP,HORIZONTAL,,26S,33E,22,,19693,12363,7330,0,3294,0,11/17/2017 9:39:21 PM,1/1/2018 12:00:00 AM,1/1/2018 12:00:00 AM,,9/11/2017 12:00:00 AM,,9/29/2017 12:00:00 AM,,89003,44234,89150,44234,89003,89150,59067.83,False,False,False,True,True,False,False
4f60b408-3a28-42d4-a5f0-d245641683fc,OPHELIA 22 FEDERAL COM #707H,OPHELIA 22 FEDERAL COM,3002544008,32.0356636047363,-103.562255859375,32.0356636047363,-103.562255859375,,LEA,New Mexico,"EOG RESOURCES, INC.",,Active,OIL,,UPPER WOLFCAMP,HORIZONTAL,,26S,33E,22,,19765,12399,7366,0,3301,0,11/17/2017 6:27:47 PM,1/1/2018 12:00:00 AM,1/1/2018 12:00:00 AM,,9/11/2017 12:00:00 AM,,9/23/2017 12:00:00 AM,,75350,39645,91442,39645,75350,91442,52203.33,False,False,False,True,True,False,False
c63195c6-f342-4ac7-877e-4acfc526c673,OPHELIA 22 FEDERAL COM #706H,OPHELIA 22 FEDERAL COM,3002544009,32.0356674194336,-103.562370300293,32.0356674194336,-103.562370300293,,LEA,New Mexico,"EOG RESOURCES, INC.",,Active,OIL,,UPPER WOLFCAMP,HORIZONTAL,,26S,33E,22,,19750,12398,7352,0,3302,0,11/18/2017 12:47:54 AM,1/1/2018 12:00:00 AM,1/1/2018 12:00:00 AM,,9/11/2017 12:00:00 AM,,9/29/2017 12:00:00 AM,,107570,53686,108989,53686,107570,108989,71614.34,False,False,False,True,True,False,False
f8fa3e80-1cde-4cb7-95ce-313892532111,FLORENCE STATE 23 23 34 AR #202H,FLORENCE STATE 23 23 34 AR,3002544013,32.2833595275879,-103.44367980957,32.2833595275879,-103.44367980957,,LEA,New Mexico,MATADOR PRODUCTION COMPANY,,Active,OIL,,WOLFCAMP,HORIZONTAL,,23S,34E,23,,16143,11367,4776,0,3403,0,11/17/2017 10:05:05 PM,1/1/2018 12:00:00 AM,1/1/2018 12:00:00 AM,,9/15/2017 12:00:00 AM,,11/9/2017 12:00:00 AM,,5171,2593,8767,2593,5171,8767,3454.833,False,False,False,True,True,False,False
13dd2baf-8a57-4fc7-ac28-34fbd04cff7c,OPHELIA 22 FEDERAL COM #705H,OPHELIA 22 FEDERAL COM,3002544007,32.0356712341309,-103.566528320313,32.0356712341309,-103.566528320313,,LEA,New Mexico,"EOG RESOURCES, INC.",,Active,OIL,,UPPER WOLFCAMP,HORIZONTAL,,26S,33E,22,,19725,12386,7339,0,3295,0,11/17/2017 9:57:50 PM,1/1/2018 12:00:00 AM,1/1/2018 12:00:00 AM,,9/11/2017 12:00:00 AM,,10/17/2017 12:00:00 AM,,112310,56410,112995,56410,112310,112995,75128.34,False,False,False,True,True,False,False
a920e9a2-d3c5-4c39-951e-525c743d0528,RUDOLPH FEDERAL #002H,RUDOLPH FEDERAL,3001544499,32.9029884338379,-104.188369750977,32.9029884338379,-104.188369750977,,EDDY,New Mexico,MACK ENERGY CORPORTATION,,Active,OIL,,SAN ANDRES,HORIZONTAL,,16S,28E,21,,4000,1902,2098,0,3605,0,11/17/2017 3:04:09 PM,1/1/2018 12:00:00 AM,2/1/2018 12:00:00 AM,,11/1/2017 12:00:00 AM,,12/1/2017 12:00:00 AM,,2019,817,22044,488,1673,17406,766.8333,False,False,False,True,True,False,False
43fc1e7a-f061-4182-833d-b5b44e102c4d,TURKEY TRACK 8 7 STATE #022H,TURKEY TRACK 8 7 STATE,3001544142,32.6794853210449,-104.08814239502,32.6794853210449,-104.08814239502,,EDDY,New Mexico,OXY USA WTP LIMITED PARTNERSHIP,OXY USA WTP LIMITED PARTNERSHIP,Active,OIL,,BONE SPRING,HORIZONTAL,,19S,29E,9,,17815,7667,10148,0,3392,0,11/17/2017 7:47:31 PM,1/1/2018 12:00:00 AM,1/1/2018 12:00:00 AM,,5/2/2017 12:00:00 AM,,10/30/2017 12:00:00 AM,,28226,30378,0,30378,28226,0,35082.33,False,False,False,True,True,False,False
26d9fca5-b3bb-44f7-bc5d-d441fdd9056c,TURKEY TRACK 9 10 STATE #024H,TURKEY TRACK 9 10 STATE,3001544156,32.6712951660156,-104.08910369873,32.6712951660156,-104.08910369873,,EDDY,New Mexico,OXY USA WTP LIMITED PARTNERSHIP,OXY USA WTP LIMITED PARTNERSHIP,Active,OIL,,BONE SPRING,HORIZONTAL,,19S,29E,8,,17990,7953,10037,0,3388,0,11/17/2017 3:20:59 PM,1/1/2018 12:00:00 AM,1/1/2018 12:00:00 AM,,5/8/2017 12:00:00 AM,,10/13/2017 12:00:00 AM,,25325,27528,0,27528,25325,0,31748.83,False,False,False,True,True,False,False
5778f9bf-bfcb-4056-8176-d86dff38aa3f,TURKEY TRACK 9 10 STATE #023H,TURKEY TRACK 9 10 STATE,3001544154,32.6713790893555,-104.08910369873,32.6713790893555,-104.08910369873,,EDDY,New Mexico,OXY USA WTP LIMITED PARTNERSHIP,OXY USA WTP LIMITED PARTNERSHIP,Active,OIL,,BONE SPRING,HORIZONTAL,,19S,29E,8,,18115,7962,10153,0,3388,0,11/17/2017 6:44:54 PM,1/1/2018 12:00:00 AM,1/1/2018 12:00:00 AM,,5/8/2017 12:00:00 AM,,10/14/2017 12:00:00 AM,,26584,28998,0,28998,26584,0,33428.67,False,False,False,True,True,False,False
be57b523-0787-475f-a2b1-e7f8295dd875,CEDAR LAKE FEDERAL CA #409H,CEDAR LAKE FEDERAL CA,3001543520,32.8678092956543,-103.869262695313,32.8678092956543,-103.869262695313,,EDDY,New Mexico,Apache Corporation,APACHE CORP,Active,OIL,,GLORIETA-YESO,HORIZONTAL,,17S,31E,4,,9508,5552,3956,0,3956,0,11/17/2017 7:54:09 PM,1/1/2018 12:00:00 AM,1/1/2018 12:00:00 AM,,12/17/2015 12:00:00 AM,,1/8/2017 12:00:00 AM,,11252,8112,35554,8112,11252,35554,9987.333,False,False,False,True,True,False,False
703b4f78-af7e-40f0-a0e3-6fb9dd2205a0,BONE YARD 11 FEE #016H,BONE YARD 11 FEE,3001543999,32.6018104553223,-104.457229614258,32.6018104553223,-104.457229614258,,EDDY,New Mexico,COG OPERATING LLC,COG OPERATING LLC,Active,OIL,,GLORIETA-YESO,HORIZONTAL,,20S,25E,2,,10440,3118,7322,0,3387,0,11/17/2017 5:38:32 PM,1/1/2018 12:00:00 AM,1/1/2018 12:00:00 AM,,12/16/2016 12:00:00 AM,,10/4/2017 12:00:00 AM,,7907,10702,25179,10702,7907,25179,12019.83,False,False,False,True,True,False,False
b8f7d5ab-bd16-482a-a354-124292daa7eb,GOODMAN 22 #004H,GOODMAN 22,3001544366,32.6452407836914,-104.473541259766,32.6452407836914,-104.473541259766,,EDDY,New Mexico,"PERCUSSION PETROLEUM OPERATING, LLC",,Active,OIL,,GLORIETA-YESO,HORIZONTAL,,19S,25E,22,,8033,2857,5176,0,3459,0,11/17/2017 3:58:20 PM,1/1/2018 12:00:00 AM,1/1/2018 12:00:00 AM,,8/2/2017 12:00:00 AM,,10/19/2017 12:00:00 AM,,5021,7308,63252,7308,5021,63252,8144.833,False,False,False,True,True,False,False
a3d9aeb9-f66b-44af-a676-98eda3e1a213,GOODMAN 22 #006H,GOODMAN 22,3001544365,32.6429595947266,-104.47346496582,32.6429595947266,-104.47346496582,,EDDY,New Mexico,"PERCUSSION PETROLEUM OPERATING, LLC",,Active,OIL,,GLORIETA-YESO,HORIZONTAL,,19S,25E,22,,7998,2859,5139,0,3458,0,11/17/2017 5:32:46 PM,1/1/2018 12:00:00 AM,1/1/2018 12:00:00 AM,,8/2/2017 12:00:00 AM,,11/1/2017 12:00:00 AM,,4145,5032,73301,5032,4145,73301,5722.833,False,False,False,True,True,False,False
35b7a95e-6175-4f2a-9d56-afc01e0ec300,CRANBERRY BSU STATE COM #001H,CRANBERRY BSU STATE COM,3002541378,32.4860610961914,-103.536338806152,32.4860610961914,-103.536338806152,,LEA,New Mexico,"EOG RESOURCES, INC.","EOG Y RESOURCES, INC.",Active,OIL,,"BONE SPRING, NORTH",HORIZONTAL,,21S,33E,11,,16497,11600,4897,0,3786,0,11/17/2017 9:56:09 PM,1/1/2018 12:00:00 AM,1/1/2018 12:00:00 AM,,8/29/2017 12:00:00 AM,,7/18/2014 12:00:00 AM,,6529,6176,21817,6176,6529,21817,7264.167,False,False,False,True,True,False,False
0363c448-7a6e-4bee-b654-a6e23e1bc74e,SALADO DRAW 10 W1PA FEDERAL #002H,SALADO DRAW 10 W1PA FEDERAL,3002542837,32.0499153137207,-103.552894592285,32.0499153137207,-103.552894592285,,LEA,New Mexico,MEWBOURNE OIL CO,MEWBOURNE OIL CO,Active,OIL,,WOLFCAMP (GAS),HORIZONTAL,,26S,33E,15,,17710,12655,5055,0,3328,0,11/17/2017 6:24:48 PM,1/1/2018 12:00:00 AM,1/1/2018 12:00:00 AM,,5/5/2017 12:00:00 AM,,6/9/2017 12:00:00 AM,,50786,29573,81442,29573,50786,81442,38037.33,False,False,False,True,True,False,False
becb693d-9003-4e3f-9118-dc7fdf174b33,EK 30 BS2 FEDERAL COM #001H,EK 30 BS2 FEDERAL COM,3002542701,32.7119407653809,-103.593841552734,32.7119407653809,-103.593841552734,,LEA,New Mexico,"McElvain Energy, Inc.","MCELVAIN ENERGY, INC",Active,OIL,,BONE SPRING,HORIZONTAL,,18S,34E,30,,14783,9875,4908,0,3893,0,11/17/2017 9:23:23 PM,1/1/2018 12:00:00 AM,1/1/2018 12:00:00 AM,,7/21/2015 12:00:00 AM,,6/24/2017 12:00:00 AM,,765,8097,12941,8097,765,12941,8224.5,False,False,False,True,True,False,False
3753191c-0b63-4381-a7a7-ef5aceea585e,UHLMAN FEDERAL 3-7H,UHLMAN FEDERAL,33053068200000,47.9940910339355,-103.392509460449,48.0237007141113,-103.393218994141,,MC KENZIE,North Dakota,"CONTINENTAL RESOURCES, INC.","CONTINENTAL RESOURCES, INC.",Active,OIL AND GAS,BANKS,Bakken,HORIZONTAL,,152N,99W,7,,21647,11040,10607,0,0,2101,11/18/2017 8:16:51 AM,1/1/2018 12:00:00 AM,1/1/2018 12:00:00 AM,,3/30/2015 12:00:00 AM,,8/14/2015 12:00:00 AM,,3881,1903,666,1903,3881,666,2549.833,True,True,True,False,True,False,False
5cc7d2cb-d1aa-455a-821e-0bada07d6578,DODGE 3C TFH,DODGE,33053077570000,47.9037246704102,-102.989074707031,47.9037246704102,-102.989074707031,,MC KENZIE,North Dakota,BURLINGTON RESOURCES OIL & GAS COMPANY LP,BURLINGTON RESOURCES OIL & GAS COMPANY LP,Active,OIL AND GAS,DIMMICK LAKE,Bakken,HORIZONTAL,,151N,96W,17,,20905,10763,10142,0,0,0,11/18/2017 8:17:32 AM,1/1/2018 12:00:00 AM,1/1/2018 12:00:00 AM,,9/4/2016 12:00:00 AM,,5/16/2017 12:00:00 AM,,235,51,2,51,235,2,90.16666,False,True,False,False,True,False,False
29d7ea21-5375-4e64-9513-6dec5b4e33d9,DODGE 3B MBH,DODGE,33053077560000,47.9037246704102,-102.989265441895,47.9037246704102,-102.989265441895,,MC KENZIE,North Dakota,BURLINGTON RESOURCES OIL & GAS COMPANY LP,BURLINGTON RESOURCES OIL & GAS COMPANY LP,Active,OIL AND GAS,DIMMICK LAKE,Bakken,HORIZONTAL,,151N,96W,17,,20895,10688,10207,0,0,0,8/26/2017 8:27:36 AM,1/1/2018 12:00:00 AM,1/1/2018 12:00:00 AM,,9/4/2016 12:00:00 AM,,5/17/2017 12:00:00 AM,,178,135,2,135,178,2,164.6667,False,True,False,False,True,False,False
29769e68-50d2-43cd-880d-39cbc59512bf,HURINENKO 144-98-11D-2-1H,HURINENKO,33007018860000,47.298023223877,-103.063980102539,47.298023223877,-103.063980102539,,BILLINGS,North Dakota,"PETRO-HUNT, L.L.C.","PETRO-HUNT, L.L.C.",Active,OIL AND GAS,LITTLE KNIFE,Bakken,HORIZONTAL,,144N,98W,14,,21972,,,0,0,0,8/31/2017 11:07:50 AM,2/1/2018 12:00:00 AM,2/1/2018 12:00:00 AM,,,,6/26/2017 12:00:00 AM,,8198,7430,12717,7430,8198,12717,8796.333,False,True,False,False,True,False,False
221db1e1-fd93-4a4f-b610-4d90876c5f1b,BRONETT 14-7H,BRONETT,33025032930000,47.4724998474121,-102.584846496582,47.4724998474121,-102.584846496582,,DUNN,North Dakota,MARATHON OIL COMPANY,MARATHON OIL COMPANY,Active,OIL AND GAS,BAILEY,Bakken,HORIZONTAL,,146N,93W,18,,21136,,,0,0,0,11/18/2017 8:14:50 AM,1/1/2018 12:00:00 AM,1/1/2018 12:00:00 AM,,,,5/15/2017 12:00:00 AM,,35080,52855,21247,26905,19516,0,30157.67,False,True,False,False,True,False,False
bf2e07c3-43d5-4c96-b7b8-ed30d3ba4cb6,ARKIN 44-12TFH,ARKIN,33025032940000,47.4724349975586,-102.585037231445,47.4724349975586,-102.585037231445,,DUNN,North Dakota,MARATHON OIL COMPANY,MARATHON OIL COMPANY,Active,OIL AND GAS,BAILEY,Bakken,HORIZONTAL,,146N,93W,18,,21213,,,0,0,0,11/18/2017 8:14:33 AM,1/1/2018 12:00:00 AM,1/1/2018 12:00:00 AM,,,,5/14/2017 12:00:00 AM,,62179,96881,53074,61186,38209,17719,67554.16,False,True,False,False,True,False,False
a38daad7-a41d-48c0-a592-113f44562dbf,CCU AUDUBON 2-1-27TFH,CCU AUDUBON,33025029710000,47.5296020507813,-102.775970458984,47.5296020507813,-102.775970458984,,DUNN,North Dakota,BURLINGTON RESOURCES OIL & GAS COMPANY LP,BURLINGTON RESOURCES OIL & GAS COMPANY LP,Active,OIL AND GAS,CORRAL CREEK,Bakken,HORIZONTAL,,147N,95W,27,,21510,11083,10427,0,0,0,9/20/2017 11:41:40 PM,2/1/2018 12:00:00 AM,2/1/2018 12:00:00 AM,,7/8/2016 12:00:00 AM,,9/1/2017 12:00:00 AM,,819,6263,290,6263,819,290,6399.5,False,True,False,False,True,False,False
c97488fd-8143-4f3c-ad6f-ef2c0c9ca55f,CCU BOXCAR 14-22TFH,CCU BOXCAR,33025029700000,47.5295028686523,-102.776077270508,47.5295028686523,-102.776077270508,,DUNN,North Dakota,BURLINGTON RESOURCES OIL & GAS COMPANY LP,BURLINGTON RESOURCES OIL & GAS COMPANY LP,Active,OIL AND GAS,CORRAL CREEK,Bakken,HORIZONTAL,,147N,95W,27,,21290,11158,10132,0,0,0,9/20/2017 10:36:22 PM,2/1/2018 12:00:00 AM,2/1/2018 12:00:00 AM,,7/8/2016 12:00:00 AM,,8/31/2017 12:00:00 AM,,317,405,185,405,317,185,457.8333,False,True,False,False,True,False,False
0867313d-7728-47cb-928d-6487c8fb7443,SABROSKY 145-97-27B-34-4H,SABROSKY,33025032340000,47.3590087890625,-103.035919189453,47.3590087890625,-103.035919189453,,DUNN,North Dakota,"PETRO-HUNT, L.L.C.","PETRO-HUNT, L.L.C.",Active,OIL AND GAS,LITTLE KNIFE,Bakken,HORIZONTAL,,145N,97W,21,,21624,11049,10575,0,0,0,8/26/2017 8:24:05 AM,1/1/2018 12:00:00 AM,2/1/2018 12:00:00 AM,,10/27/2016 12:00:00 AM,,5/25/2017 12:00:00 AM,,23277,29211,41092,13479,11125,19951,15333.17,False,True,False,False,True,False,False
427c6de8-fb67-482c-a43e-13542bc00672,BIG HORN 32-29HT,BIG HORN,33025031410000,47.761848449707,-102.610221862793,47.761848449707,-102.610221862793,,DUNN,North Dakota,"WPX ENERGY WILLISTON, LLC","WPX ENERGY WILLISTON, LLC",Active,OIL AND GAS,REUNION BAY,Bakken,HORIZONTAL,,150N,93W,32,,,10993,,0,0,0,10/7/2017 8:14:09 AM,1/1/2018 12:00:00 AM,,,7/8/2016 12:00:00 AM,,10/2/2017 12:00:00 AM,,39859,42291,30818,,,,,False,True,False,False,True,False,False
68f52234-5221-415c-b142-b041a4d9d9d4,BIG HORN 32-29HX,BIG HORN,33025031390000,47.7620086669922,-102.61018371582,47.7620086669922,-102.61018371582,,DUNN,North Dakota,"WPX ENERGY WILLISTON, LLC","WPX ENERGY WILLISTON, LLC",Active,OIL AND GAS,REUNION BAY,Bakken,HORIZONTAL,,150N,93W,32,,21002,10986,10016,0,0,0,10/7/2017 8:12:20 AM,1/1/2018 12:00:00 AM,,,7/8/2016 12:00:00 AM,,9/30/2017 12:00:00 AM,,36357,35192,30991,,,,,False,True,False,False,True,False,False
218ca53e-41ac-4333-8b5b-e1cc0fd2bd2e,BIG HORN 32-29HF,BIG HORN,33025031400000,47.7619285583496,-102.610206604004,47.7619285583496,-102.610206604004,,DUNN,North Dakota,"WPX ENERGY WILLISTON, LLC","WPX ENERGY WILLISTON, LLC",Active,OIL AND GAS,REUNION BAY,Bakken,HORIZONTAL,,150N,93W,32,,20915,10875,10040,0,0,0,10/7/2017 8:13:49 AM,1/1/2018 12:00:00 AM,,,7/8/2016 12:00:00 AM,,10/1/2017 12:00:00 AM,,51984,55687,26503,,,,,False,True,False,False,True,False,False
eeda931f-f41b-4efc-9296-8e9317ad3ef0,STROUP 34-7TFH,STROUP,33025032700000,47.4726638793945,-102.577308654785,47.4726638793945,-102.577308654785,,DUNN,North Dakota,MARATHON OIL COMPANY,MARATHON OIL COMPANY,Active,OIL AND GAS,BAILEY,Bakken,HORIZONTAL,,146N,93W,18,,21345,,,0,0,0,11/18/2017 8:14:44 AM,1/1/2018 12:00:00 AM,1/1/2018 12:00:00 AM,,3/12/2017 12:00:00 AM,,4/28/2017 12:00:00 AM,,44472,42750,0,4608,5851,0,5583.167,False,True,False,False,True,False,False
845c014b-e978-48bd-bae1-be2534cac8ce,KENNETH 24-7TFH,KENNETH,33025032680000,47.4726638793945,-102.577713012695,47.4726638793945,-102.577713012695,,DUNN,North Dakota,MARATHON OIL COMPANY,MARATHON OIL COMPANY,Active,OIL AND GAS,BAILEY,Bakken,HORIZONTAL,,146N,93W,18,,21230,,,0,0,0,8/26/2017 8:24:48 AM,1/1/2018 12:00:00 AM,1/1/2018 12:00:00 AM,,3/12/2017 12:00:00 AM,,5/1/2017 12:00:00 AM,,36044,38318,2695,4290,4574,0,5052.333,False,True,False,False,True,False,False
5bf3c1e1-598b-4f04-9323-c2b750e8b8f7,BETHOL 34-7H,BETHOL,33025032690000,47.4726638793945,-102.577507019043,47.4726638793945,-102.577507019043,,DUNN,North Dakota,MARATHON OIL COMPANY,MARATHON OIL COMPANY,Active,OIL AND GAS,BAILEY,Bakken,HORIZONTAL,,146N,93W,18,,21135,,,0,0,0,8/26/2017 8:24:13 AM,1/1/2018 12:00:00 AM,1/1/2018 12:00:00 AM,,3/12/2017 12:00:00 AM,,4/30/2017 12:00:00 AM,,43978,40575,0,732,782,0,862.3333,False,True,False,False,True,False,False
8b507aa5-0891-4459-ad3b-ca1c1c843a2d,ERNST 14-7TFH,ERNST,33025032670000,47.4725646972656,-102.584671020508,47.4725646972656,-102.584671020508,,DUNN,North Dakota,MARATHON OIL COMPANY,MARATHON OIL COMPANY,Active,OIL AND GAS,BAILEY,Bakken,HORIZONTAL,,146N,93W,18,,21174,,,0,0,0,11/18/2017 8:14:32 AM,1/1/2018 12:00:00 AM,1/1/2018 12:00:00 AM,,3/12/2017 12:00:00 AM,,5/16/2017 12:00:00 AM,,41215,60012,21449,11991,9909,0,13642.5,False,True,False,False,True,False,False
61db6d29-7a76-4d4e-a440-0d974a58d36d,KOSTELNAK 145-97-32D-29-3H,KOSTELNAK,33025026090000,47.3297157287598,-103.062789916992,47.3297157287598,-103.062789916992,,DUNN,North Dakota,"PETRO-HUNT, L.L.C.","PETRO-HUNT, L.L.C.",Active,OIL AND GAS,LITTLE KNIFE,Bakken,HORIZONTAL,,145N,97W,32,,21162,10999,10163,0,0,0,9/2/2017 8:52:38 AM,1/1/2018 12:00:00 AM,2/1/2018 12:00:00 AM,,7/8/2016 12:00:00 AM,,10/17/2016 12:00:00 AM,,18683,22782,26976,13770,11751,15879,15728.5,False,True,False,False,True,False,False
9f11cba5-5b23-4e34-ac9d-39780c6be214,KOSTELNAK 145-97-32D-29-4H,KOSTELNAK,33025026100000,47.3297157287598,-103.062606811523,47.3297157287598,-103.062606811523,,DUNN,North Dakota,"PETRO-HUNT, L.L.C.","PETRO-HUNT, L.L.C.",Active,OIL AND GAS,LITTLE KNIFE,Bakken,HORIZONTAL,,145N,97W,32,,21070,10015,11055,0,0,0,9/2/2017 8:53:11 AM,1/1/2018 12:00:00 AM,2/1/2018 12:00:00 AM,,7/8/2016 12:00:00 AM,,11/14/2016 12:00:00 AM,,14966,20351,21268,12517,9747,13440,14141.5,False,True,False,False,True,False,False
a49790bf-b4b2-4558-8813-07f3f072ad93,DOLEZAL 6-5H1,Dolezal,33025029690000,47.4162635803223,-102.816818237305,47.3871955871582,-102.813064575195,,DUNN,North Dakota,"CONTINENTAL RESOURCES, INC.","CONTINENTAL RESOURCES, INC.",Active,OIL AND GAS,CHIMNEY BUTTE,Bakken,HORIZONTAL,,146N,95W,32,,21452,10980,10472,0,0,2375,11/18/2017 8:15:13 AM,1/1/2018 12:00:00 AM,2/1/2018 12:00:00 AM,,7/1/2015 12:00:00 AM,,9/27/2015 12:00:00 AM,,12881,13086,98751,7183,7150,48438,8374.667,True,True,True,False,True,False,False
00595df1-52de-4c90-9af7-a0911113c34c,DOLEZAL 5-5H,Dolezal,33025029680000,47.4162635803223,-102.817001342773,47.3871955871582,-102.815826416016,,DUNN,North Dakota,"CONTINENTAL RESOURCES, INC.","CONTINENTAL RESOURCES, INC.",Active,OIL AND GAS,CHIMNEY BUTTE,Bakken,HORIZONTAL,,146N,95W,32,,21355,10850,10505,0,0,2375,11/18/2017 8:14:38 AM,1/1/2018 12:00:00 AM,2/1/2018 12:00:00 AM,,7/1/2015 12:00:00 AM,,9/25/2015 12:00:00 AM,,19365,18506,101813,10136,11053,53185,11978.17,True,True,True,False,True,False,False
46c3081d-20d2-476e-b4ac-810593c820ca,KOSTELNAK 145-97-32D-29-5H,KOSTELNAK,33025030150000,47.3297157287598,-103.062423706055,47.3297157287598,-103.062423706055,,DUNN,North Dakota,"PETRO-HUNT, L.L.C.","PETRO-HUNT, L.L.C.",Active,OIL AND GAS,LITTLE KNIFE,Bakken,HORIZONTAL,,145N,97W,32,,21167,11033,10134,0,0,0,9/2/2017 8:48:57 AM,1/1/2018 12:00:00 AM,2/1/2018 12:00:00 AM,,7/8/2016 12:00:00 AM,,12/12/2016 12:00:00 AM,,11035,14429,20667,14429,11028,20667,16267,False,True,False,False,True,False,False
3cb68e00-f788-4bba-8597-079908526251,LUND 41X-17D,Lund,33053074150000,47.8176383972168,-103.116424560547,47.7901763916016,-103.11360168457,,MC KENZIE,North Dakota,XTO ENERGY INC.,XTO ENERGY INC.,Active,OIL AND GAS,SIVERSTON,Bakken,HORIZONTAL,,150N,97W,17,,20985,11103.5498046875,9881.4501953125,0,0,2185,11/18/2017 8:16:22 AM,1/1/2018 12:00:00 AM,1/1/2018 12:00:00 AM,,7/8/2016 12:00:00 AM,,2/8/2016 12:00:00 AM,,13635,29175,30689,14636,1114,11958,14821.67,True,True,True,False,True,False,False
84554e7f-ba8d-45c9-be3b-4719846a0fb4,LUND 41X-17G,Lund,33053074120000,47.8176422119141,-103.116790771484,47.7901916503906,-103.121276855469,,MC KENZIE,North Dakota,XTO ENERGY INC.,XTO ENERGY INC.,Active,OIL AND GAS,SIVERSTON,Bakken,HORIZONTAL,,150N,97W,17,,21544,11183,10361,0,0,2185,11/18/2017 8:16:47 AM,1/1/2018 12:00:00 AM,1/1/2018 12:00:00 AM,,7/8/2016 12:00:00 AM,,2/11/2016 12:00:00 AM,,1364,23320,9302,23320,1364,9302,23547.33,True,True,True,False,True,False,False
361ddfc6-472d-44b2-90d5-8f58a2056d8e,LUND 41X-17HXE,Lund,33053074160000,47.8176383972168,-103.116302490234,47.7905769348145,-103.11124420166,,MC KENZIE,North Dakota,XTO ENERGY INC.,XTO ENERGY INC.,Active,OIL AND GAS,SIVERSTON,Bakken,HORIZONTAL,,150N,97W,17,,21407,11160,10247,0,0,2185,11/18/2017 8:17:54 AM,1/1/2018 12:00:00 AM,1/1/2018 12:00:00 AM,,7/8/2016 12:00:00 AM,,2/6/2016 12:00:00 AM,,2248,27492,10043,27492,2248,10043,27866.67,True,True,True,False,True,False,False
69736304-67ba-4cdf-9b93-ff70205ad962,LUND 41X-17C,Lund,33053074130000,47.8176383972168,-103.116668701172,47.7901878356934,-103.119071960449,,MC KENZIE,North Dakota,XTO ENERGY INC.,XTO ENERGY INC.,Active,OIL AND GAS,SIVERSTON,Bakken,HORIZONTAL,,150N,97W,17,,20775,11108.8603515625,9666.1396484375,0,0,2185,11/18/2017 8:16:46 AM,1/1/2018 12:00:00 AM,1/1/2018 12:00:00 AM,,7/8/2016 12:00:00 AM,,2/10/2016 12:00:00 AM,,14837,26682,21168,12619,1087,0,12800.17,True,True,True,False,True,False,False
53de12b7-5309-419f-b839-9d0f356e57d0,DODGE 2A TFH,DODGE,33053079480000,47.9039993286133,-102.989501953125,47.9039993286133,-102.989501953125,,MC KENZIE,North Dakota,BURLINGTON RESOURCES OIL & GAS COMPANY LP,BURLINGTON RESOURCES OIL & GAS COMPANY LP,Active,OIL AND GAS,DIMMICK LAKE,Bakken,HORIZONTAL,,151N,96W,17,,21167,10772,10395,0,0,0,10/7/2017 8:18:12 AM,1/1/2018 12:00:00 AM,2/1/2018 12:00:00 AM,,2/7/2017 12:00:00 AM,,4/4/2017 12:00:00 AM,,34284,22853,13171,21097,32553,13166,26522.5,False,True,False,False,True,False,False
a0a730a5-fe7d-48f4-85f3-e45003152eba,DODGE 2B MBH,DODGE,33053077590000,47.9039993286133,-102.989318847656,47.9039993286133,-102.989318847656,,MC KENZIE,North Dakota,BURLINGTON RESOURCES OIL & GAS COMPANY LP,BURLINGTON RESOURCES OIL & GAS COMPANY LP,Active,OIL AND GAS,DIMMICK LAKE,Bakken,HORIZONTAL,,151N,96W,17,,20990,10682,10308,0,0,0,10/7/2017 8:17:09 AM,1/1/2018 12:00:00 AM,2/1/2018 12:00:00 AM,,9/4/2016 12:00:00 AM,,4/3/2017 12:00:00 AM,,32283,21417,12689,21047,32283,12689,26427.5,False,True,False,False,True,False,False
1903d385-7e06-409a-98f4-efbfcae88863,DODGE 3A TFH,DODGE,33053077550000,47.9037246704102,-102.989448547363,47.9037246704102,-102.989448547363,,MC KENZIE,North Dakota,BURLINGTON RESOURCES OIL & GAS COMPANY LP,BURLINGTON RESOURCES OIL & GAS COMPANY LP,Active,OIL AND GAS,DIMMICK LAKE,Bakken,HORIZONTAL,,151N,96W,17,,20983,10773,10210,0,0,0,8/26/2017 8:28:31 AM,1/1/2018 12:00:00 AM,2/1/2018 12:00:00 AM,,9/4/2016 12:00:00 AM,,5/18/2017 12:00:00 AM,,30269,20008,12117,19916,30028,12116,24920.67,False,True,False,False,True,False,False
58f00279-6d80-449f-afd0-a4cc46d81e83,DODGE 3D MBH,DODGE,33053077580000,47.9037246704102,-102.988891601563,47.9037246704102,-102.988891601563,,MC KENZIE,North Dakota,BURLINGTON RESOURCES OIL & GAS COMPANY LP,BURLINGTON RESOURCES OIL & GAS COMPANY LP,Active,OIL AND GAS,DIMMICK LAKE,Bakken,HORIZONTAL,,151N,96W,17,,20909,10686,10223,0,0,0,11/18/2017 8:18:07 AM,1/1/2018 12:00:00 AM,2/1/2018 12:00:00 AM,,9/4/2016 12:00:00 AM,,5/15/2017 12:00:00 AM,,30034,19295,11482,19122,29720,11481,24075.33,False,True,False,False,True,False,False
ab2fa47d-0472-48e9-b2cc-4b5c5fb9ec68,PATENT GATE 7-6 #3H,PATENT GATE 7-6,33053063260000,47.9070777893066,-103.530738830566,47.934398651123,-103.52668762207,,MC KENZIE,North Dakota,Statoil Oil & Gas LP,Statoil Oil & Gas LP,,OIL AND GAS,SAKAKAWEA,Bakken,HORIZONTAL,,151N,100W,7,,20888,11014,9874,0,2219,2249,10/7/2017 8:23:17 AM,1/1/2018 12:00:00 AM,1/1/2018 12:00:00 AM,,7/8/2016 12:00:00 AM,,7/7/2016 12:00:00 AM,,0,781,12689,781,0,12689,781,True,True,True,False,True,False,False
ba191a79-8e71-40a2-b036-53dca80ed7d2,PATENT GATE 7-6 #4H,PATENT GATE 7-6,33053063270000,47.9070739746094,-103.53050994873,47.9343948364258,-103.522636413574,,MC KENZIE,North Dakota,Statoil Oil & Gas LP,Statoil Oil & Gas LP,,OIL AND GAS,SAKAKAWEA,Bakken,HORIZONTAL,,151N,100W,7,,21060,11025,10035,0,2219,2249,10/7/2017 8:17:03 AM,1/1/2018 12:00:00 AM,1/1/2018 12:00:00 AM,,7/8/2016 12:00:00 AM,,6/27/2016 12:00:00 AM,,0,272,21080,272,0,21080,272,True,True,True,False,True,False,False
f191ab6a-c392-46f4-847c-4a1cfec1ddba,KOALA 31-2TFH,Koala,33053077240000,47.9343109130859,-103.441261291504,47.9343109130859,-103.441261291504,,MC KENZIE,North Dakota,WHITING OIL AND GAS CORPORATION,WHITING OIL AND GAS CORPORATION,,OIL AND GAS,POE,Bakken,HORIZONTAL,,151N,100W,2,,,11198,,0,2314,0,10/7/2017 8:21:22 AM,2/1/2018 12:00:00 AM,2/1/2018 12:00:00 AM,,8/18/2016 12:00:00 AM,,8/27/2017 12:00:00 AM,,8156,6658,7082,6658,8156,7082,8017.333,False,True,False,False,True,False,False
1d1ec529-27b3-4c53-a102-db27cade41e3,KOALA 31-2-2H,Koala,33053077230000,47.9343070983887,-103.441139221191,47.9343070983887,-103.441139221191,,MC KENZIE,North Dakota,WHITING OIL AND GAS CORPORATION,WHITING OIL AND GAS CORPORATION,,OIL AND GAS,POE,Bakken,HORIZONTAL,,151N,100W,2,,,11142,,0,2314,0,10/21/2017 3:59:03 PM,2/1/2018 12:00:00 AM,2/1/2018 12:00:00 AM,,8/18/2016 12:00:00 AM,,9/7/2017 12:00:00 AM,,16981,15201,14977,15201,16981,14977,18031.17,False,True,False,False,True,False,False
8922196d-65ef-49c9-a1d1-b75ba0530931,ERICKSON 155-102-26-25-3H,ERICKSON,33105025900000,48.2249717712402,-103.774673461914,48.2249717712402,-103.774673461914,,WILLIAMS,North Dakota,"Nine Point Energy, LLC",QEP ENERGY COMPANY,,OIL AND GAS,SQUIRES,Bakken,HORIZONTAL,,155N,102W,26,,20904,,,0,0,0,8/26/2017 8:30:40 AM,1/1/2018 12:00:00 AM,1/1/2018 12:00:00 AM,,7/8/2016 12:00:00 AM,,5/18/2017 12:00:00 AM,,0,9603,22134,9603,0,22134,9603,False,True,False,False,True,False,False
2e852d7a-bea1-4e3c-9f93-01df39214ec1,UHLMAN FEDERAL 2-7H1,UHLMAN FEDERAL,33053068210000,47.9938507080078,-103.392593383789,48.0237007141113,-103.394660949707,,MC KENZIE,North Dakota,"CONTINENTAL RESOURCES, INC.","CONTINENTAL RESOURCES, INC.",,OIL AND GAS,BANKS,Bakken,HORIZONTAL,,152N,99W,7,,21895,11083,10812,0,0,2101,11/18/2017 8:16:50 AM,1/1/2018 12:00:00 AM,1/1/2018 12:00:00 AM,,3/30/2015 12:00:00 AM,,8/15/2015 12:00:00 AM,,3881,1709,591,1709,3881,591,2355.833,True,True,True,False,True,False,False
36e8b51f-32c5-45bb-9e79-0c281b833865,PITTSBURGH 3-7H,PITTSBURGH,33053068220000,47.9939727783203,-103.392555236816,47.9645690917969,-103.393280029297,,MC KENZIE,North Dakota,"CONTINENTAL RESOURCES, INC.","CONTINENTAL RESOURCES, INC.",,OIL AND GAS,BANKS,Bakken,HORIZONTAL,,152N,99W,7,,21486,11040,10446,0,0,2101,11/18/2017 8:17:10 AM,1/1/2018 12:00:00 AM,1/1/2018 12:00:00 AM,,3/30/2015 12:00:00 AM,,8/13/2015 12:00:00 AM,,871,792,1027,792,871,1027,937.1667,True,True,True,False,True,False,False
da37f4c0-a630-422a-bcae-a3921b2154af,MONROE 12-2H1,MONROE,33053078240000,48.0135116577148,-103.307922363281,48.0526809692383,-103.30884552002,,MC KENZIE,North Dakota,"CONTINENTAL RESOURCES, INC.","CONTINENTAL RESOURCES, INC.",,OIL AND GAS,BANKS,Bakken,HORIZONTAL,,152N,99W,2,,25206,10964,14242,0,1944,0,11/18/2017 8:16:29 AM,1/1/2018 12:00:00 AM,1/1/2018 12:00:00 AM,,10/25/2016 12:00:00 AM,,11/15/2016 12:00:00 AM,,5315,2295,7406,2295,5315,7406,3180.833,True,True,True,False,True,False,False
2a5e5a33-dd4d-49f0-b41e-db043b07f4d2,MONROE 13-2H1,MONROE,33053078230000,48.0134887695313,-103.307746887207,48.0526847839355,-103.306243896484,,MC KENZIE,North Dakota,"CONTINENTAL RESOURCES, INC.","CONTINENTAL RESOURCES, INC.",,OIL AND GAS,BANKS,Bakken,HORIZONTAL,,152N,99W,2,,25167,10985,14182,0,1944,0,11/18/2017 8:21:28 AM,1/1/2018 12:00:00 AM,1/1/2018 12:00:00 AM,,10/25/2016 12:00:00 AM,,11/13/2016 12:00:00 AM,,1758,822,3634,822,1758,3634,1115,True,True,True,False,True,False,False
2f6c3a6d-ee17-4d2c-93f0-04147946aeb6,PATENT GATE 7-6 XE #1H,PATENT GATE 7-6 XE,33053076330000,47.9070739746094,-103.530281066895,47.9343910217285,-103.519004821777,,MC KENZIE,North Dakota,Statoil Oil & Gas LP,Statoil Oil & Gas LP,,OIL AND GAS,POE,Bakken,HORIZONTAL,,151N,100W,7,,21233,10989,10244,0,0,2250,10/7/2017 8:20:12 AM,1/1/2018 12:00:00 AM,1/1/2018 12:00:00 AM,,7/8/2016 12:00:00 AM,,6/25/2016 12:00:00 AM,,0,4313,7463,4313,0,7463,4313,True,True,True,False,True,False,False
aba2559c-7c04-4d4d-8dbb-f4a44cae559f,HEINZ 18-19 XE #1H,HEINZ 18-19 XE,33053076320000,47.9070739746094,-103.530395507813,47.877815246582,-103.518829345703,,MC KENZIE,North Dakota,Statoil Oil & Gas LP,Statoil Oil & Gas LP,,OIL AND GAS,PATENT GATE,Bakken,HORIZONTAL,,151N,100W,7,,21657,11002,10655,0,2219,2250,10/7/2017 8:18:58 AM,1/1/2018 12:00:00 AM,1/1/2018 12:00:00 AM,,7/8/2016 12:00:00 AM,,6/26/2016 12:00:00 AM,,8375,8623,10801,8623,8375,10801,10018.83,True,True,True,False,True,False,False
dd387aee-1837-411a-89c1-b7bf77f4a02b,ERICKSON 155-102-26-25-4H,ERICKSON,33105025890000,48.225040435791,-103.774673461914,48.225040435791,-103.774673461914,,WILLIAMS,North Dakota,"Nine Point Energy, LLC",QEP ENERGY COMPANY,Active,OIL AND GAS,SQUIRES,Bakken,HORIZONTAL,,155N,102W,26,,20904,,,0,0,0,8/26/2017 8:31:18 AM,1/1/2018 12:00:00 AM,1/1/2018 12:00:00 AM,,7/8/2016 12:00:00 AM,,5/20/2017 12:00:00 AM,,14174,27777,92128,6176,0,30993,6176,False,True,False,False,True,False,False
c0593093-747b-4300-bb2b-6984d5b26e54,JACKMAN 44-10-1HU,JACKMAN,33105043740000,48.3436508178711,-103.519638061523,48.3436508178711,-103.519638061523,,WILLIAMS,North Dakota,WHITING OIL AND GAS CORPORATION,WHITING OIL AND GAS CORPORATION,Active,OIL AND GAS,EAST FORK,Bakken,HORIZONTAL,,156N,100W,10,,20610,10381,10229,0,2081,0,9/2/2017 8:56:49 AM,2/1/2018 12:00:00 AM,2/1/2018 12:00:00 AM,,2/22/2017 12:00:00 AM,,5/15/2017 12:00:00 AM,,2564,2529,13860,2529,2564,13860,2956.333,False,True,False,False,True,False,False
e81c8b3f-90eb-4624-ba30-8fe7148bfa35,JACKMAN 44-10-2TFH,JACKMAN,33105043730000,48.3436508178711,-103.519828796387,48.3436508178711,-103.519828796387,,WILLIAMS,North Dakota,WHITING OIL AND GAS CORPORATION,WHITING OIL AND GAS CORPORATION,Active,OIL AND GAS,EAST FORK,Bakken,HORIZONTAL,,156N,100W,10,,20615,10446,10169,0,2079,0,9/2/2017 8:56:21 AM,2/1/2018 12:00:00 AM,2/1/2018 12:00:00 AM,,2/22/2017 12:00:00 AM,,5/4/2017 12:00:00 AM,,226,173,10656,173,226,10656,210.6667,False,True,False,False,True,False,False
90866b38-4325-4a18-bc06-b6006aaa5b45,JACKMAN 44-10-2H,JACKMAN,33105043760000,48.3436508178711,-103.519271850586,48.3436508178711,-103.519271850586,,WILLIAMS,North Dakota,WHITING OIL AND GAS CORPORATION,WHITING OIL AND GAS CORPORATION,Active,OIL AND GAS,EAST FORK,Bakken,HORIZONTAL,,156N,100W,10,,21110,10398,10712,0,2087,0,9/2/2017 8:54:45 AM,2/1/2018 12:00:00 AM,2/1/2018 12:00:00 AM,,2/22/2017 12:00:00 AM,,6/6/2017 12:00:00 AM,,15723,17780,47799,17780,15723,47799,20400.5,False,True,False,False,True,False,False
c28b0732-3a96-42a8-a08e-d02a85ce4d01,JACKMAN 44-10-1TFH,JACKMAN,33105043750000,48.3436508178711,-103.519454956055,48.3436508178711,-103.519454956055,,WILLIAMS,North Dakota,WHITING OIL AND GAS CORPORATION,WHITING OIL AND GAS CORPORATION,Active,OIL AND GAS,EAST FORK,Bakken,HORIZONTAL,,156N,100W,10,,20820,10423,10397,0,2083,0,9/2/2017 8:56:52 AM,2/1/2018 12:00:00 AM,2/1/2018 12:00:00 AM,,2/22/2017 12:00:00 AM,,5/25/2017 12:00:00 AM,,7576,8048,28121,8048,7576,28121,9310.667,False,True,False,False,True,False,False
aa65195f-b274-4a20-a391-fa20064147ae,JACKMAN 44-10-3H,JACKMAN,33105043720000,48.3436508178711,-103.520011901855,48.3436508178711,-103.520011901855,,WILLIAMS,North Dakota,WHITING OIL AND GAS CORPORATION,WHITING OIL AND GAS CORPORATION,Active,OIL AND GAS,EAST FORK,Bakken,HORIZONTAL,,156N,100W,10,,20655,10379,10276,0,2077,0,9/2/2017 8:55:24 AM,2/1/2018 12:00:00 AM,,,2/22/2017 12:00:00 AM,,4/18/2017 12:00:00 AM,,631,937,9555,,,,,False,True,False,False,True,False,False
d718013d-9609-4bde-9614-03ebba327b44,CAVALLI STATE 34-9-5HU,CAVALLI STATE,33105043820000,48.3432960510254,-103.548454284668,48.3432960510254,-103.548454284668,,WILLIAMS,North Dakota,WHITING OIL AND GAS CORPORATION,WHITING OIL AND GAS CORPORATION,Active,OIL AND GAS,EAST FORK,Bakken,HORIZONTAL,,156N,100W,9,,21935,,,0,1976,0,10/31/2017 12:18:41 PM,2/1/2018 12:00:00 AM,2/1/2018 12:00:00 AM,,3/1/2017 12:00:00 AM,,10/2/2017 12:00:00 AM,,688,523,18434,523,688,18434,637.6667,False,True,False,False,True,False,False
b3b95213-7592-4b86-8d01-0437e3b4b137,CPEUSC MAKOWSKY 4-31-30-158N-99W,CPEUSC MAKOWSKY,33105040880000,48.4585990905762,-103.530517578125,48.4585990905762,-103.530517578125,,WILLIAMS,North Dakota,CRESCENT POINT ENERGY U.S. CORP.,CRESCENT POINT ENERGY U.S. CORP.,Active,OIL AND GAS,ELLISVILLE,Bakken,HORIZONTAL,,157N,99W,6,,20683,,,0,0,0,8/26/2017 8:31:18 AM,2/1/2018 12:00:00 AM,2/1/2018 12:00:00 AM,,7/8/2016 12:00:00 AM,,7/25/2017 12:00:00 AM,,133,120,1134,120,133,1134,142.1667,False,True,False,False,True,False,False
5d445147-0b75-4718-8c4f-74113b1398c0,CPEUSC MAKOWSKY 3-31-30-158N-99W,CPEUSC MAKOWSKY,33105040890000,48.4585990905762,-103.530311584473,48.4585990905762,-103.530311584473,,WILLIAMS,North Dakota,CRESCENT POINT ENERGY U.S. CORP.,CRESCENT POINT ENERGY U.S. CORP.,Active,OIL AND GAS,ELLISVILLE,Bakken,HORIZONTAL,,157N,99W,6,,20824,,,0,0,0,8/26/2017 8:30:52 AM,2/1/2018 12:00:00 AM,2/1/2018 12:00:00 AM,,7/8/2016 12:00:00 AM,,7/29/2017 12:00:00 AM,,52,52,631,52,52,631,60.66667,False,True,False,False,True,False,False
b2d32f11-6448-4d18-ab2d-35ac0a428028,CPEUSC MAKOWSKY 6-31-30-158N-99W TFH,CPEUSC MAKOWSKY,33105042860000,48.4585990905762,-103.530204772949,48.4585990905762,-103.530204772949,,WILLIAMS,North Dakota,CRESCENT POINT ENERGY U.S. CORP.,CRESCENT POINT ENERGY U.S. CORP.,Active,OIL AND GAS,ELLISVILLE,Bakken,HORIZONTAL,,157N,99W,6,,20795,,,0,0,0,8/26/2017 8:28:30 AM,2/1/2018 12:00:00 AM,2/1/2018 12:00:00 AM,,8/10/2016 12:00:00 AM,,7/31/2017 12:00:00 AM,,61,57,598,57,61,598,67.16666,False,True,False,False,True,False,False
6b019cfa-1b03-4834-aff2-412bcd95cf58,CPEUSC MAKOWSKY 7-31-30-158N-99W TFH,CPEUSC MAKOWSKY,33105042850000,48.4585990905762,-103.530418395996,48.4585990905762,-103.530418395996,,WILLIAMS,North Dakota,CRESCENT POINT ENERGY U.S. CORP.,CRESCENT POINT ENERGY U.S. CORP.,Active,OIL AND GAS,ELLISVILLE,Bakken,HORIZONTAL,,157N,99W,6,,20739,,,0,0,0,8/26/2017 8:31:22 AM,2/1/2018 12:00:00 AM,2/1/2018 12:00:00 AM,,8/10/2016 12:00:00 AM,,7/27/2017 12:00:00 AM,,0,0,598,0,0,598,0,False,True,False,False,True,False,False
e10165a7-0e1f-4aef-b560-909743941134,CPEUSC MAKOWSKY 5-31-30-158N-99W TFH,CPEUSC MAKOWSKY,33105042840000,48.4590148925781,-103.522827148438,48.4590148925781,-103.522827148438,,WILLIAMS,North Dakota,CRESCENT POINT ENERGY U.S. CORP.,CRESCENT POINT ENERGY U.S. CORP.,Active,OIL AND GAS,ELLISVILLE,Bakken,HORIZONTAL,,157N,99W,6,,20719,,,0,0,0,8/26/2017 8:28:18 AM,2/1/2018 12:00:00 AM,,,8/10/2016 12:00:00 AM,,8/5/2017 12:00:00 AM,,122,419,1753,,,,,False,True,False,False,True,False,False
1c05612b-23d3-4276-a5ad-266bf57ae269,CPEUSC MAKOWSKY 2-31-30-158N-99W,CPEUSC MAKOWSKY,33105041300000,48.4590148925781,-103.522827148438,48.4590148925781,-103.522827148438,,WILLIAMS,North Dakota,CRESCENT POINT ENERGY U.S. CORP.,CRESCENT POINT ENERGY U.S. CORP.,Active,OIL AND GAS,ELLISVILLE,Bakken,HORIZONTAL,,157N,99W,6,,20295,,,0,0,0,8/26/2017 8:30:17 AM,2/1/2018 12:00:00 AM,2/1/2018 12:00:00 AM,,7/8/2016 12:00:00 AM,,8/3/2017 12:00:00 AM,,122,419,1753,419,122,1753,439.3333,False,True,False,False,True,False,False
12bf9960-1d73-463f-92fd-cc098ece31fd,HANSON 28-33 5H,Hanson,33105044560000,48.1391944885254,-103.425567626953,48.1391944885254,-103.425567626953,,WILLIAMS,North Dakota,"ZAVANNA, LLC","ZAVANNA, LLC",Active,OIL AND GAS,STOCKYARD CREEK,Bakken,HORIZONTAL,,154N,99W,28,,21557,11094.7998046875,10462.2001953125,0,0,0,8/31/2017 11:08:36 AM,1/1/2018 12:00:00 AM,2/1/2018 12:00:00 AM,,,,7/25/2017 12:00:00 AM,,0,8648,17989,3096,0,3584,3096,False,True,False,False,True,False,False
ceb19169-c39d-4e4c-863c-3e2f45f95756,HE 3-8-20UTFH,HE,33053071010000,47.8772735595703,-103.123611450195,47.8772735595703,-103.123611450195,,MC KENZIE,North Dakota,BURLINGTON RESOURCES OIL & GAS COMPANY LP,BURLINGTON RESOURCES OIL & GAS COMPANY LP,Active,OIL AND GAS,ELIDAH,Bakken,HORIZONTAL,,151N,97W,20,,21423,,,0,0,0,8/26/2017 8:27:34 AM,2/1/2018 12:00:00 AM,2/1/2018 12:00:00 AM,,7/8/2016 12:00:00 AM,,6/4/2017 12:00:00 AM,,669,726,3,726,669,3,837.5,False,True,False,False,True,False,False
8b5c70ee-3cdb-4ba9-bf71-7878fafddb90,HE 4-8-20MBH,HE,33053071000000,47.8772773742676,-103.123428344727,47.8772773742676,-103.123428344727,,MC KENZIE,North Dakota,BURLINGTON RESOURCES OIL & GAS COMPANY LP,BURLINGTON RESOURCES OIL & GAS COMPANY LP,Active,OIL AND GAS,ELIDAH,Bakken,HORIZONTAL,,151N,97W,20,,21339,,,0,0,0,8/26/2017 8:27:19 AM,2/1/2018 12:00:00 AM,2/1/2018 12:00:00 AM,,7/8/2016 12:00:00 AM,,6/4/2017 12:00:00 AM,,321,459,2,459,321,2,512.5,False,True,False,False,True,False,False
19b5f697-0bbd-4dc4-9d75-a70d530604ec,HE 5-8-20UTFH,HE,33053070990000,47.8772773742676,-103.123237609863,47.8772773742676,-103.123237609863,,MC KENZIE,North Dakota,BURLINGTON RESOURCES OIL & GAS COMPANY LP,BURLINGTON RESOURCES OIL & GAS COMPANY LP,Active,OIL AND GAS,ELIDAH,Bakken,HORIZONTAL,,151N,97W,20,,21366,,,0,0,0,8/26/2017 8:27:00 AM,2/1/2018 12:00:00 AM,2/1/2018 12:00:00 AM,,7/8/2016 12:00:00 AM,,6/26/2017 12:00:00 AM,,1061,534,3,534,1061,3,710.8333,False,True,False,False,True,False,False
2f3b5134-3e25-49f2-b4f3-bc5e73cbc0ec,HE 2-8-20MBH,HE,33053071020000,47.8772735595703,-103.123794555664,47.8772735595703,-103.123794555664,,MC KENZIE,North Dakota,BURLINGTON RESOURCES OIL & GAS COMPANY LP,BURLINGTON RESOURCES OIL & GAS COMPANY LP,Active,OIL AND GAS,ELIDAH,Bakken,HORIZONTAL,,151N,97W,20,,21395,,,0,0,0,8/26/2017 8:31:27 AM,2/1/2018 12:00:00 AM,2/1/2018 12:00:00 AM,,7/8/2016 12:00:00 AM,,6/3/2017 12:00:00 AM,,636,735,2,735,636,2,841,False,True,False,False,True,False,False
9c6ee907-4d2a-4053-956a-483d4fa6b251,KOALA 21-2TFH,Koala,33053075580000,47.9343452453613,-103.446479797363,47.9343452453613,-103.446479797363,,MC KENZIE,North Dakota,WHITING OIL AND GAS CORPORATION,WHITING OIL AND GAS CORPORATION,Active,OIL AND GAS,POE,Bakken,HORIZONTAL,,151N,100W,2,,,,,0,2273,0,9/2/2017 8:53:40 AM,2/1/2018 12:00:00 AM,2/1/2018 12:00:00 AM,,3/7/2016 12:00:00 AM,,7/21/2017 12:00:00 AM,,12463,9383,29534,9383,12463,29534,11460.17,False,True,False,False,True,False,False
1283a5c5-57d9-4d27-b253-be121ab48c41,KOALA 21-2TFHU,Koala,33053075570000,47.9342842102051,-103.446571350098,47.9342842102051,-103.446571350098,,MC KENZIE,North Dakota,WHITING OIL AND GAS CORPORATION,WHITING OIL AND GAS CORPORATION,Active,OIL AND GAS,POE,Bakken,HORIZONTAL,,151N,100W,2,,21687,,,0,2273,0,9/2/2017 8:54:22 AM,2/1/2018 12:00:00 AM,2/1/2018 12:00:00 AM,,3/7/2016 12:00:00 AM,,8/2/2017 12:00:00 AM,,20652,14482,31604,14482,20652,31604,17924,False,True,False,False,True,False,False
e3af98de-4eb1-4cb6-9e2c-5916de2d8242,SAND CREEK FEDERAL 153-96-23-14-12H,SAND CREEK FEDERAL,33053081120000,48.0529251098633,-102.984664916992,48.0529251098633,-102.984664916992,,MC KENZIE,North Dakota,NEWFIELD PRODUCTION COMPANY,NEWFIELD PRODUCTION COMPANY,Active,OIL AND GAS,KEENE,BAKKEN/THREE FORKS,HORIZONTAL,,153N,96W,23,,20905,10324,10581,0,0,0,10/7/2017 9:23:54 AM,1/1/2018 12:00:00 AM,2/1/2018 12:00:00 AM,,,,9/27/2017 12:00:00 AM,,80075,41223,39978,19612,37482,17270,25859,False,True,False,False,True,False,False
5be7fbf3-791c-489b-8537-795abec86c9f,SAND CREEK FEDERAL 153-96-23-14-4H,SAND CREEK FEDERAL,33053081130000,48.0529251098633,-102.984764099121,48.0529251098633,-102.984764099121,,MC KENZIE,North Dakota,NEWFIELD PRODUCTION COMPANY,NEWFIELD PRODUCTION COMPANY,Active,OIL AND GAS,KEENE,BAKKEN/THREE FORKS,HORIZONTAL,,153N,96W,23,,20755,10249,10506,0,0,0,10/7/2017 8:18:42 AM,1/1/2018 12:00:00 AM,2/1/2018 12:00:00 AM,,,,9/26/2017 12:00:00 AM,,117881,64808,17289,29916,53171,7202,38777.83,False,True,False,False,True,False,False
541f752d-b0b6-49c4-8575-87c6b7189648,SAND CREEK FEDERAL 153-96-23-14-13H,SAND CREEK FEDERAL,33053081110000,48.0529251098633,-102.984558105469,48.0529251098633,-102.984558105469,,MC KENZIE,North Dakota,NEWFIELD PRODUCTION COMPANY,NEWFIELD PRODUCTION COMPANY,Active,OIL AND GAS,KEENE,BAKKEN/THREE FORKS,HORIZONTAL,,153N,96W,23,,20832,10324,10508,0,0,0,10/7/2017 8:23:57 AM,1/1/2018 12:00:00 AM,2/1/2018 12:00:00 AM,,,,9/28/2017 12:00:00 AM,,94800,52219,28737,27970,48712,12904,36088.67,False,True,False,False,True,False,False
644608b5-d0ab-4026-a7c9-bf261e857d75,SAND CREEK FEDERAL 153-96-23-14-11H,SAND CREEK FEDERAL,33053081140000,48.0529251098633,-102.984970092773,48.0529251098633,-102.984970092773,,MC KENZIE,North Dakota,NEWFIELD PRODUCTION COMPANY,NEWFIELD PRODUCTION COMPANY,Active,OIL AND GAS,KEENE,BAKKEN/THREE FORKS,HORIZONTAL,,153N,96W,23,,21006,10337.5,10668.5,0,0,0,9/30/2017 3:24:24 PM,1/1/2018 12:00:00 AM,2/1/2018 12:00:00 AM,,,,9/25/2017 12:00:00 AM,,95002,51710,21673,22782,40895,8190,29597.83,False,True,False,False,True,False,False
50fc8975-ab61-4f61-83fe-45426b8449f7,GLADSTONE 2-1-25TFH A,GLADSTONE,33053080100000,48.0519371032715,-103.109504699707,48.0519371032715,-103.109504699707,,MC KENZIE,North Dakota,BURLINGTON RESOURCES OIL & GAS COMPANY LP,BURLINGTON RESOURCES OIL & GAS COMPANY LP,Active,OIL AND GAS,SAND CREEK,Bakken,HORIZONTAL,,153N,97W,26,,20942,10562,10380,0,0,0,8/31/2017 11:07:59 AM,2/1/2018 12:00:00 AM,2/1/2018 12:00:00 AM,,,,7/29/2017 12:00:00 AM,,2300,675,3,675,2300,3,1058.333,False,True,False,False,True,False,False
cc3de677-405b-4bc1-938c-ad64aa99b4de,GLADSTONE 1-1-25MBH A,GLADSTONE,33053080110000,48.052059173584,-103.109504699707,48.052059173584,-103.109504699707,,MC KENZIE,North Dakota,BURLINGTON RESOURCES OIL & GAS COMPANY LP,BURLINGTON RESOURCES OIL & GAS COMPANY LP,Active,OIL AND GAS,SAND CREEK,Bakken,HORIZONTAL,,153N,97W,26,,20793,10484,10309,0,0,0,8/31/2017 11:07:57 AM,2/1/2018 12:00:00 AM,2/1/2018 12:00:00 AM,,,,7/30/2017 12:00:00 AM,,4573,1420,3,1420,4573,3,2182.167,False,True,False,False,True,False,False
78a41e29-dc94-44bd-b5a0-134374148554,GLADSTONE 3-1-25MBH A,GLADSTONE,33053080090000,48.051815032959,-103.109504699707,48.051815032959,-103.109504699707,,MC KENZIE,North Dakota,BURLINGTON RESOURCES OIL & GAS COMPANY LP,BURLINGTON RESOURCES OIL & GAS COMPANY LP,Active,OIL AND GAS,SAND CREEK,Bakken,HORIZONTAL,,153N,97W,26,,21026,10471,10555,0,0,0,8/31/2017 11:08:02 AM,2/1/2018 12:00:00 AM,2/1/2018 12:00:00 AM,,,,7/27/2017 12:00:00 AM,,2110,749,1,749,2110,1,1100.667,False,True,False,False,True,False,False
3b2c0ad8-55c4-47fb-82c5-1fd5190d98b7,PERISCOPE FEDERAL 6-10-11-12TFH,PERISCOPE FEDERAL,33061037480000,47.9086570739746,-102.438316345215,47.9086570739746,-102.438316345215,,MOUNTRAIL,North Dakota,"SLAWSON EXPLORATION COMPANY, INC.","SLAWSON EXPLORATION COMPANY, INC.",Active,OIL AND GAS,BIG BEND,Bakken,HORIZONTAL,,151N,92W,10,,22950,,,0,0,0,8/26/2017 8:28:36 AM,2/1/2018 12:00:00 AM,2/1/2018 12:00:00 AM,,7/8/2016 12:00:00 AM,,5/23/2017 12:00:00 AM,,942,1385,2517,1385,942,2517,1542,False,True,False,False,True,False,False
69f2fd8e-348f-4999-a321-3f3638441b56,EN-KULCZYK- 154-94-2029H-5,EN-KULCZYK-,33061037350000,48.1527976989746,-102.79402923584,48.1527976989746,-102.79402923584,,MOUNTRAIL,North Dakota,"HESS BAKKEN INVESTMENTS II, LLC","HESS BAKKEN INVESTMENTS II, LLC",Active,OIL AND GAS,ALKALI CREEK,Bakken,HORIZONTAL,,154N,94W,20,,20932,10239,10693,0,0,0,8/26/2017 8:27:11 AM,2/1/2018 12:00:00 AM,2/1/2018 12:00:00 AM,,7/8/2016 12:00:00 AM,,8/3/2017 12:00:00 AM,,0,23019,1202,23019,0,1202,23019,False,True,False,False,True,False,False
6fac8770-eddf-45d8-9911-6da8143d7684,EN-KULCZYK- 154-94-2029H-10,EN-KULCZYK-,33061037300000,48.1523628234863,-102.794219970703,48.1523628234863,-102.794219970703,,MOUNTRAIL,North Dakota,"HESS BAKKEN INVESTMENTS II, LLC","HESS BAKKEN INVESTMENTS II, LLC",Active,OIL AND GAS,ALKALI CREEK,Bakken,HORIZONTAL,,154N,94W,20,,20323,10715,9608,0,0,0,8/26/2017 8:31:16 AM,2/1/2018 12:00:00 AM,,,7/8/2016 12:00:00 AM,,7/28/2017 12:00:00 AM,,2447,0,0,,,,,False,True,False,False,True,False,False
fc897859-caa8-4111-bb29-75fa22bff97b,EN-KULCZYK- 154-94-2029H-9,EN-KULCZYK-,33061037310000,48.1524505615234,-102.79418182373,48.1524505615234,-102.79418182373,,MOUNTRAIL,North Dakota,"HESS BAKKEN INVESTMENTS II, LLC","HESS BAKKEN INVESTMENTS II, LLC",Active,OIL AND GAS,ALKALI CREEK,Bakken,HORIZONTAL,,154N,94W,20,,21109,10853,10256,0,0,0,8/26/2017 8:28:48 AM,2/1/2018 12:00:00 AM,2/1/2018 12:00:00 AM,,7/8/2016 12:00:00 AM,,7/30/2017 12:00:00 AM,,0,7193,7532,7193,0,7532,7193,False,True,False,False,True,False,False
a987d40d-5355-4f4e-9860-7c16d1e9400d,EN-KULCZYK- 154-94-2029H-7,EN-KULCZYK-,33061037330000,48.1526260375977,-102.794105529785,48.1526260375977,-102.794105529785,,MOUNTRAIL,North Dakota,"HESS BAKKEN INVESTMENTS II, LLC","HESS BAKKEN INVESTMENTS II, LLC",Active,OIL AND GAS,ALKALI CREEK,Bakken,HORIZONTAL,,154N,94W,20,,20977,10729,10248,0,0,0,8/26/2017 8:28:41 AM,2/1/2018 12:00:00 AM,2/1/2018 12:00:00 AM,,7/8/2016 12:00:00 AM,,8/1/2017 12:00:00 AM,,0,14822,1047,14822,0,1047,14822,False,True,False,False,True,False,False
e2e47adf-d549-403c-8e43-a007cbeb288e,EN-KULCZYK- 154-94-2029H-8,EN-KULCZYK-,33061037320000,48.1525382995605,-102.794143676758,48.1525382995605,-102.794143676758,,MOUNTRAIL,North Dakota,"HESS BAKKEN INVESTMENTS II, LLC","HESS BAKKEN INVESTMENTS II, LLC",Active,OIL AND GAS,ALKALI CREEK,Bakken,HORIZONTAL,,154N,94W,20,,21070,10860,10210,0,0,0,8/26/2017 8:29:22 AM,2/1/2018 12:00:00 AM,2/1/2018 12:00:00 AM,,7/8/2016 12:00:00 AM,,7/31/2017 12:00:00 AM,,0,9850,22230,9850,0,22230,9850,False,True,False,False,True,False,False
1d6547be-94ae-4a33-a2ee-cbe94b668268,EN-KULCZYK- 154-94-2029H-6,EN-KULCZYK-,33061037340000,48.1527099609375,-102.794067382813,48.1527099609375,-102.794067382813,,MOUNTRAIL,North Dakota,"HESS BAKKEN INVESTMENTS II, LLC","HESS BAKKEN INVESTMENTS II, LLC",Active,OIL AND GAS,ALKALI CREEK,Bakken,HORIZONTAL,,154N,94W,20,,21076,10904,10172,0,0,0,8/26/2017 8:29:23 AM,2/1/2018 12:00:00 AM,2/1/2018 12:00:00 AM,,7/8/2016 12:00:00 AM,,8/3/2017 12:00:00 AM,,0,11514,1034,11514,0,1034,11514,False,True,False,False,True,False,False
9e84638d-582a-4fde-b204-6e64b1f7be7c,SPRAGUE 41-12H,SPRAGUE,33061040250000,48.0039405822754,-102.515090942383,48.0039405822754,-102.515090942383,,MOUNTRAIL,North Dakota,WHITING OIL AND GAS CORPORATION,WHITING OIL AND GAS CORPORATION,Active,OIL AND GAS,SANISH,Bakken,HORIZONTAL,,152N,93W,12,,20120,,,0,1971,0,11/18/2017 8:17:27 AM,1/1/2018 12:00:00 AM,2/1/2018 12:00:00 AM,,3/19/2017 12:00:00 AM,,11/25/2017 12:00:00 AM,,726,1044,2,1021,726,2,1142,False,True,False,False,True,False,False
22ec4810-0269-472d-9351-8e128c6cec84,BLUE CREEK USA 24-22TFH-2B,BLUE CREEK USA,33053065180000,47.877498626709,-102.703758239746,47.877498626709,-102.703758239746,,MC KENZIE,North Dakota,MARATHON OIL COMPANY,MARATHON OIL COMPANY,Active,OIL AND GAS,ANTELOPE,SANISH,HORIZONTAL,,151N,94W,22,,21206,10917,10289,0,0,0,9/2/2017 8:52:08 AM,1/1/2018 12:00:00 AM,1/1/2018 12:00:00 AM,,7/8/2016 12:00:00 AM,,11/13/2016 12:00:00 AM,,44455,26387,19396,14898,24077,4777,18910.83,False,True,False,False,True,False,False
a77f7e87-0073-4320-993f-c26a7daa39a9,HEINZ 18-19 #6H,HEINZ 18-19,33053063290000,47.9070739746094,-103.530624389648,47.877815246582,-103.522590637207,,MC KENZIE,North Dakota,Statoil Oil & Gas LP,Statoil Oil & Gas LP,Active,OIL AND GAS,PATENT GATE,Bakken,HORIZONTAL,,151N,100W,7,,21493,11014,10479,0,2219,2251,10/7/2017 8:16:51 AM,1/1/2018 12:00:00 AM,1/1/2018 12:00:00 AM,,7/8/2016 12:00:00 AM,,6/29/2016 12:00:00 AM,,0,0,6858,0,0,6858,0,True,True,True,False,True,False,False
227e0434-c1b2-4fcf-a0a2-24d6b83741a9,CRATERHAWK 8-14 UTFH-ULW,CRATERHAWK,33053071070000,47.9911842346191,-102.792404174805,47.9911842346191,-102.792404174805,,MC KENZIE,North Dakota,BURLINGTON RESOURCES OIL & GAS COMPANY LP,BURLINGTON RESOURCES OIL & GAS COMPANY LP,Active,OIL AND GAS,ANTELOPE,SANISH,HORIZONTAL,,152N,95W,14,,20774,10651,10123,0,0,0,8/26/2017 8:27:16 AM,1/1/2018 12:00:00 AM,2/1/2018 12:00:00 AM,,7/8/2016 12:00:00 AM,,7/12/2017 12:00:00 AM,,56148,45808,14185,36820,45487,13183,44401.17,False,True,False,False,True,False,False
5c48a9ad-b6e5-40cb-9e82-2505f5923c1e,MESA 152-94-16A-21H,Mesa,33053079640000,47.9910087585449,-102.718742370605,47.9910087585449,-102.718742370605,,MC KENZIE,North Dakota,ENERPLUS RESOURCES USA CORPORATION,ENERPLUS RESOURCES USA CORPORATION,Active,OIL AND GAS,ANTELOPE,SANISH,HORIZONTAL,,152N,94W,16,,20465,,,0,2129,0,10/7/2017 8:18:35 AM,2/1/2018 12:00:00 AM,2/1/2018 12:00:00 AM,,4/3/2017 12:00:00 AM,,6/18/2017 12:00:00 AM,,0,3045,2837,3045,0,2837,3045,False,True,False,False,True,False,False
2313e93e-9d78-43de-b078-7e34b846fa12,BRAVO DOME CARBON DIOXIDE GAS UNIT #321,BRAVO DOME CARBON DIOXIDE GAS UNIT,3002120638,36.0088768005371,-103.550354003906,36.0088768005371,-103.550354003906,,HARDING,New Mexico,OXY USA INC.,OXY USA INC,Active,CO2,,BRAVO DOME CARBON DIOXIDE GAS 640,VERTICAL,,21N,32E,32,,2270,2270,,0,4728,0,11/17/2017 7:18:25 PM,1/1/2018 12:00:00 AM,1/1/2018 12:00:00 AM,,5/5/2014 12:00:00 AM,,8/6/2014 12:00:00 AM,,12828,0,0,0,12828,0,2138,False,False,False,True,True,False,False
90c84244-ef2a-4ebd-8e3c-5274541d6e63,J.H.V.U. (STATLER 11) 11-11,123-027049-0-1363 : J.H.V.U. (STATLER 11),35123026590000,34.5809211730957,-96.5439224243164,34.5809211730957,-96.5439224243164,,PONTOTOC,Oklahoma,ROBERSON OIL COMPANY INC,ROBERSON OIL COMPANY INC,AC,GAS,FITTS,UNKNOWN FORMATION,VERTICAL,,1N,7E,2,,4571,,,0,0,0,9/25/2017 11:53:49 AM,3/1/2018 12:00:00 AM,3/1/2018 12:00:00 AM,,,,11/17/1937 12:00:00 AM,,919,0,0,0,919,0,153.1667,False,True,False,False,True,False,False
a9d042fe-679a-4e92-ae00-3ca445aed8ba,State 36 63,,25101242340000,48.7458000183105,-111.810523986816,48.7458000183105,-111.810523986816,,TOOLE,Montana,"Somont Oil Company, Inc.","Somont Oil Company, Inc.",PRODUCING,OIL,Kevin-Sunburst,,VERTICAL,,35N,2W,36,,1335,,,0,3451,0,3/25/2018 5:34:22 AM,1/1/2018 12:00:00 AM,2/1/2018 12:00:00 AM,,12/12/2013 12:00:00 AM,,4/4/2014 12:00:00 AM,,0,15,4800,10,0,2400,10,False,False,False,False,True,False,False
fc891525-3a8c-4373-86a9-58b0b1d6945d,State 36 75,,25101242650000,48.750904083252,-111.80313873291,48.750904083252,-111.80313873291,,TOOLE,Montana,"Somont Oil Company, Inc.","Somont Oil Company, Inc.",PRODUCING,OIL,Kevin-Sunburst,Swift,VERTICAL,,35N,2W,36,,1338,,,0,3489,3489,2/26/2018 6:21:50 AM,1/1/2018 12:00:00 AM,2/1/2018 12:00:00 AM,,,,9/3/2015 12:00:00 AM,,0,15,900,10,0,450,10,False,False,False,False,True,False,False
530adb47-02a4-4575-8223-9421bf71830a,Faust 5-7C4,,4301353467,40.2363586425781,-110.37760925293,40.2363586425781,-110.37760925293,,DUCHESNE,Utah,"EP ENERGY E&P COMPANY, L.P.",,PRODUCING,OIL,ALTAMONT,WASATCH,VERTICAL,,3.0S,4.0W,7,,0,,,0,0,0,10/20/2017 5:28:04 PM,1/1/2018 12:00:00 AM,1/1/2018 12:00:00 AM,,7/20/2017 12:00:00 AM,,,,4357,3108,5719,3108,4357,5719,3834.167,False,False,False,False,True,False,False
e64a5190-0de7-4715-b928-11a60007cd07,LIGONS 1,107-219069-0-0000 : LIGONS,35107235850000,35.3931694030762,-96.2047729492188,35.3931694030762,-96.2047729492188,,OKFUSKEE,Oklahoma,OIL CREEK PRODUCTION COMPANY,OIL CREEK PRODUCTION COMPANY,AC,GAS,,GILCREASE,VERTICAL,,11N,10E,25,,4400,,,0,851,0,6/7/2017 1:44:02 AM,1/1/2018 12:00:00 AM,1/1/2018 12:00:00 AM,,10/13/2016 12:00:00 AM,,11/30/2016 12:00:00 AM,,1174,0,0,0,1174,0,195.6667,False,True,False,True,True,False,False
47c7d40b-fd65-4816-82b9-fc7012787636,CLEARVIEW 27-1,,35107235910000,35.3941917419434,-96.1262893676758,35.3941917419434,-96.1262893676758,,OKFUSKEE,Oklahoma,GIBSON LES,GIBSON LES,AC,GAS,,GILCREASE,VERTICAL,,11N,11E,27,,4000,,,0,898,0,9/29/2017 4:42:09 PM,3/1/2018 12:00:00 AM,3/1/2018 12:00:00 AM,,8/16/2017 12:00:00 AM,,10/11/2017 12:00:00 AM,,62,0,0,0,62,0,10.33333,False,True,False,True,True,False,False
2267d4e9-7aeb-495a-831c-b03cd3ef64ab,DILLINGHAM RANCH 19-3,,35111273400000,35.7241439819336,-95.9240341186523,35.7241439819336,-95.9240341186523,,OKMULGEE,Oklahoma,MONARCH ENERGY COMPANY LLC,MONARCH ENERGY COMPANY LLC,AC,GAS,,DUTCHER,VERTICAL,,14N,13E,3,,2750,,,0,744,0,10/9/2017 10:58:28 AM,2/1/2018 12:00:00 AM,3/1/2018 12:00:00 AM,,,,6/21/2010 12:00:00 AM,,1410,0,0,0,750,0,125,False,True,False,True,True,False,False
52d0444b-7635-4fe5-b18b-a2c99c7d1ab6,Horseshoe Bend Fed 15-29-6-21E,,4304753939,40.2641105651855,-109.576652526855,40.2641105651855,-109.576652526855,,UINTAH,Utah,CRESCENT POINT ENERGY U.S. CORP,,PRODUCING,OIL,HORSESHOE BEND,BLACK SHALE,VERTICAL,,6.0S,21.0E,29,,0,,,0,0,0,10/21/2017 1:46:07 AM,1/1/2018 12:00:00 AM,1/1/2018 12:00:00 AM,,,,,,0,375,609,375,0,609,375,False,False,False,False,True,False,False
4cdaedc4-9844-448b-991a-76da7e1d0293,RAIDER 9 STATE #003,RAIDER 9 STATE,3002544123,32.8463287353516,-103.662292480469,32.8463287353516,-103.662292480469,,LEA,New Mexico,"CML EXPLORATION, LLC",,Active,OIL,,CISCO,VERTICAL,,17S,33E,9,,11200,11200,,0,4185,0,11/17/2017 9:22:36 PM,1/1/2018 12:00:00 AM,2/1/2018 12:00:00 AM,,10/18/2017 12:00:00 AM,,11/15/2017 12:00:00 AM,,4354,3587,362,2337,2931,61,2825.5,False,False,False,True,True,False,False
5a3d38da-e2df-4c45-9a5e-326642f6dcd8,JOE 1-35,,35121220360001,35.1246795654297,-95.5910186767578,35.1246795654297,-95.5910186767578,,PITTSBURG,Oklahoma,CANAAN RESOURCES X LLC,CANAAN RESOURCES X LLC,AC,UNKNOWN,,UPPER BOOCH,VERTICAL,,8N,16E,35,,,,,0,621,0,9/25/2017 11:53:49 AM,1/1/2018 12:00:00 AM,1/1/2018 12:00:00 AM,,,,3/28/1997 12:00:00 AM,,384,0,0,0,384,0,64,False,True,False,True,True,False,False
dd6df63b-ae53-491f-9497-15b817bfb173,Coleman 13-28-3-1E-H1,,4304755791,40.1850204467773,-109.89769744873,40.1850204467773,-109.89769744873,,UINTAH,Utah,CRESCENT POINT ENERGY U.S. CORP,,PRODUCING,OIL,RANDLETT,CASTLE PEAK,VERTICAL,,3.0S,1.0E,32,,,,,0,0,0,10/21/2017 1:46:59 AM,1/1/2018 12:00:00 AM,1/1/2018 12:00:00 AM,,,,,,2362,5112,10630,5112,2362,10630,5505.667,False,False,False,False,True,False,False
c42ab934-aa43-4962-8314-e5dfa9e7542d,5 FEIK,FEIK,05075060630000,40.6876373291016,-103.431327819824,40.6876373291016,-103.431327819824,,LOGAN,Colorado,TIMKA RESOURCES LTD,,IJ,INJECTION,LIBERTY,JSND,Unknown,,8N,54W,5,,5312,,,0,4415,0,4/3/2018 7:12:10 PM,2/1/2018 12:00:00 AM,2/1/2018 12:00:00 AM,,,,3/5/2007 12:00:00 AM,,0,0,180,0,0,180,0,False,True,False,True,True,False,False
